<?xml version='1.0' encoding='utf-8'?>
<gpx version="1.1" creator="OpenBikeComputer authored replay" xmlns="http://www.topografix.com/GPX/1/1">
  <trk>
    <name>meiringen-loop-crossing</name>
    <trkseg>
      <trkpt lat="46.7275050" lon="8.1843591">
        <time>2026-09-14T10:00:00Z</time>
      </trkpt>
      <trkpt lat="46.7274524" lon="8.1845406">
        <time>2026-09-14T10:00:04Z</time>
      </trkpt>
      <trkpt lat="46.7274071" lon="8.1846669">
        <time>2026-09-14T10:00:07Z</time>
      </trkpt>
      <trkpt lat="46.7273777" lon="8.1848113">
        <time>2026-09-14T10:00:10Z</time>
      </trkpt>
      <trkpt lat="46.7273370" lon="8.1848897">
        <time>2026-09-14T10:00:12Z</time>
      </trkpt>
      <trkpt lat="46.7272528" lon="8.1853947">
        <time>2026-09-14T10:00:22Z</time>
      </trkpt>
      <trkpt lat="46.7271242" lon="8.1860670">
        <time>2026-09-14T10:00:35Z</time>
      </trkpt>
      <trkpt lat="46.7271192" lon="8.1861172">
        <time>2026-09-14T10:00:36Z</time>
      </trkpt>
      <trkpt lat="46.7271189" lon="8.1861606">
        <time>2026-09-14T10:00:37Z</time>
      </trkpt>
      <trkpt lat="46.7271253" lon="8.1862830">
        <time>2026-09-14T10:00:39Z</time>
      </trkpt>
      <trkpt lat="46.7271270" lon="8.1865098">
        <time>2026-09-14T10:00:43Z</time>
      </trkpt>
      <trkpt lat="46.7271416" lon="8.1867721">
        <time>2026-09-14T10:00:48Z</time>
      </trkpt>
      <trkpt lat="46.7272135" lon="8.1868942">
        <time>2026-09-14T10:00:51Z</time>
      </trkpt>
      <trkpt lat="46.7273054" lon="8.1870259">
        <time>2026-09-14T10:00:55Z</time>
      </trkpt>
      <trkpt lat="46.7273858" lon="8.1871268">
        <time>2026-09-14T10:00:58Z</time>
      </trkpt>
      <trkpt lat="46.7274703" lon="8.1872168">
        <time>2026-09-14T10:01:01Z</time>
      </trkpt>
      <trkpt lat="46.7274063" lon="8.1873300">
        <time>2026-09-14T10:01:04Z</time>
      </trkpt>
      <trkpt lat="46.7273234" lon="8.1874692">
        <time>2026-09-14T10:01:08Z</time>
      </trkpt>
      <trkpt lat="46.7271578" lon="8.1877433">
        <time>2026-09-14T10:01:15Z</time>
      </trkpt>
      <trkpt lat="46.7270650" lon="8.1878996">
        <time>2026-09-14T10:01:19Z</time>
      </trkpt>
      <trkpt lat="46.7269094" lon="8.1881540">
        <time>2026-09-14T10:01:26Z</time>
      </trkpt>
      <trkpt lat="46.7268456" lon="8.1882659">
        <time>2026-09-14T10:01:29Z</time>
      </trkpt>
      <trkpt lat="46.7267598" lon="8.1883607">
        <time>2026-09-14T10:01:32Z</time>
      </trkpt>
      <trkpt lat="46.7265802" lon="8.1885578">
        <time>2026-09-14T10:01:38Z</time>
      </trkpt>
      <trkpt lat="46.7264138" lon="8.1887276">
        <time>2026-09-14T10:01:44Z</time>
      </trkpt>
      <trkpt lat="46.7263211" lon="8.1888554">
        <time>2026-09-14T10:01:48Z</time>
      </trkpt>
      <trkpt lat="46.7262684" lon="8.1889485">
        <time>2026-09-14T10:01:50Z</time>
      </trkpt>
      <trkpt lat="46.7261561" lon="8.1891939">
        <time>2026-09-14T10:01:56Z</time>
      </trkpt>
      <trkpt lat="46.7261299" lon="8.1893021">
        <time>2026-09-14T10:01:58Z</time>
      </trkpt>
      <trkpt lat="46.7260673" lon="8.1895719">
        <time>2026-09-14T10:02:03Z</time>
      </trkpt>
      <trkpt lat="46.7260074" lon="8.1898537">
        <time>2026-09-14T10:02:09Z</time>
      </trkpt>
      <trkpt lat="46.7259917" lon="8.1899122">
        <time>2026-09-14T10:02:10Z</time>
      </trkpt>
      <trkpt lat="46.7259758" lon="8.1899538">
        <time>2026-09-14T10:02:11Z</time>
      </trkpt>
      <trkpt lat="46.7259590" lon="8.1899818">
        <time>2026-09-14T10:02:12Z</time>
      </trkpt>
      <trkpt lat="46.7259381" lon="8.1900098">
        <time>2026-09-14T10:02:13Z</time>
      </trkpt>
      <trkpt lat="46.7259144" lon="8.1900332">
        <time>2026-09-14T10:02:14Z</time>
      </trkpt>
      <trkpt lat="46.7258809" lon="8.1900623">
        <time>2026-09-14T10:02:15Z</time>
      </trkpt>
      <trkpt lat="46.7258435" lon="8.1900840">
        <time>2026-09-14T10:02:16Z</time>
      </trkpt>
      <trkpt lat="46.7258166" lon="8.1900945">
        <time>2026-09-14T10:02:17Z</time>
      </trkpt>
      <trkpt lat="46.7257856" lon="8.1900958">
        <time>2026-09-14T10:02:18Z</time>
      </trkpt>
      <trkpt lat="46.7257615" lon="8.1900935">
        <time>2026-09-14T10:02:19Z</time>
      </trkpt>
      <trkpt lat="46.7257171" lon="8.1900859">
        <time>2026-09-14T10:02:20Z</time>
      </trkpt>
      <trkpt lat="46.7256953" lon="8.1900824">
        <time>2026-09-14T10:02:21Z</time>
      </trkpt>
      <trkpt lat="46.7256719" lon="8.1900812">
        <time>2026-09-14T10:02:22Z</time>
      </trkpt>
      <trkpt lat="46.7256370" lon="8.1900854">
        <time>2026-09-14T10:02:23Z</time>
      </trkpt>
      <trkpt lat="46.7256041" lon="8.1900962">
        <time>2026-09-14T10:02:24Z</time>
      </trkpt>
      <trkpt lat="46.7255740" lon="8.1901137">
        <time>2026-09-14T10:02:25Z</time>
      </trkpt>
      <trkpt lat="46.7255467" lon="8.1901365">
        <time>2026-09-14T10:02:26Z</time>
      </trkpt>
      <trkpt lat="46.7255191" lon="8.1901675">
        <time>2026-09-14T10:02:27Z</time>
      </trkpt>
      <trkpt lat="46.7254885" lon="8.1902087">
        <time>2026-09-14T10:02:28Z</time>
      </trkpt>
      <trkpt lat="46.7254654" lon="8.1902564">
        <time>2026-09-14T10:02:29Z</time>
      </trkpt>
      <trkpt lat="46.7254266" lon="8.1903461">
        <time>2026-09-14T10:02:31Z</time>
      </trkpt>
      <trkpt lat="46.7253370" lon="8.1905605">
        <time>2026-09-14T10:02:36Z</time>
      </trkpt>
      <trkpt lat="46.7252777" lon="8.1906872">
        <time>2026-09-14T10:02:39Z</time>
      </trkpt>
      <trkpt lat="46.7252459" lon="8.1907369">
        <time>2026-09-14T10:02:40Z</time>
      </trkpt>
      <trkpt lat="46.7252174" lon="8.1907685">
        <time>2026-09-14T10:02:41Z</time>
      </trkpt>
      <trkpt lat="46.7251876" lon="8.1907915">
        <time>2026-09-14T10:02:42Z</time>
      </trkpt>
      <trkpt lat="46.7252437" lon="8.1909298">
        <time>2026-09-14T10:02:45Z</time>
      </trkpt>
      <trkpt lat="46.7251815" lon="8.1909816">
        <time>2026-09-14T10:02:47Z</time>
      </trkpt>
      <trkpt lat="46.7250094" lon="8.1909079">
        <time>2026-09-14T10:02:52Z</time>
      </trkpt>
      <trkpt lat="46.7249658" lon="8.1911357">
        <time>2026-09-14T10:02:57Z</time>
      </trkpt>
      <trkpt lat="46.7250402" lon="8.1911716">
        <time>2026-09-14T10:02:59Z</time>
      </trkpt>
      <trkpt lat="46.7250000" lon="8.1913183">
        <time>2026-09-14T10:03:02Z</time>
      </trkpt>
      <trkpt lat="46.7249992" lon="8.1913514">
        <time>2026-09-14T10:03:03Z</time>
      </trkpt>
      <trkpt lat="46.7249932" lon="8.1913889">
        <time>2026-09-14T10:03:04Z</time>
      </trkpt>
      <trkpt lat="46.7249445" lon="8.1914513">
        <time>2026-09-14T10:03:06Z</time>
      </trkpt>
      <trkpt lat="46.7247862" lon="8.1916414">
        <time>2026-09-14T10:03:12Z</time>
      </trkpt>
      <trkpt lat="46.7245813" lon="8.1919242">
        <time>2026-09-14T10:03:20Z</time>
      </trkpt>
      <trkpt lat="46.7244494" lon="8.1921026">
        <time>2026-09-14T10:03:25Z</time>
      </trkpt>
      <trkpt lat="46.7241074" lon="8.1926917">
        <time>2026-09-14T10:03:40Z</time>
      </trkpt>
      <trkpt lat="46.7239885" lon="8.1929232">
        <time>2026-09-14T10:03:46Z</time>
      </trkpt>
      <trkpt lat="46.7237238" lon="8.1934162">
        <time>2026-09-14T10:03:58Z</time>
      </trkpt>
      <trkpt lat="46.7237048" lon="8.1934540">
        <time>2026-09-14T10:03:59Z</time>
      </trkpt>
      <trkpt lat="46.7235454" lon="8.1937560">
        <time>2026-09-14T10:04:06Z</time>
      </trkpt>
      <trkpt lat="46.7233868" lon="8.1940563">
        <time>2026-09-14T10:04:13Z</time>
      </trkpt>
      <trkpt lat="46.7233523" lon="8.1941217">
        <time>2026-09-14T10:04:15Z</time>
      </trkpt>
      <trkpt lat="46.7231259" lon="8.1945506">
        <time>2026-09-14T10:04:25Z</time>
      </trkpt>
      <trkpt lat="46.7224747" lon="8.1958382">
        <time>2026-09-14T10:04:56Z</time>
      </trkpt>
      <trkpt lat="46.7228666" lon="8.1962636">
        <time>2026-09-14T10:05:10Z</time>
      </trkpt>
      <trkpt lat="46.7230654" lon="8.1963511">
        <time>2026-09-14T10:05:16Z</time>
      </trkpt>
      <trkpt lat="46.7232682" lon="8.1965148">
        <time>2026-09-14T10:05:22Z</time>
      </trkpt>
      <trkpt lat="46.7237218" lon="8.1969785">
        <time>2026-09-14T10:05:37Z</time>
      </trkpt>
      <trkpt lat="46.7238598" lon="8.1966735">
        <time>2026-09-14T10:05:44Z</time>
      </trkpt>
      <trkpt lat="46.7237218" lon="8.1969785">
        <time>2026-09-14T10:05:51Z</time>
      </trkpt>
      <trkpt lat="46.7232682" lon="8.1965148">
        <time>2026-09-14T10:06:06Z</time>
      </trkpt>
      <trkpt lat="46.7230654" lon="8.1963511">
        <time>2026-09-14T10:06:12Z</time>
      </trkpt>
      <trkpt lat="46.7228666" lon="8.1962636">
        <time>2026-09-14T10:06:18Z</time>
      </trkpt>
      <trkpt lat="46.7224747" lon="8.1958382">
        <time>2026-09-14T10:06:32Z</time>
      </trkpt>
      <trkpt lat="46.7231259" lon="8.1945506">
        <time>2026-09-14T10:07:03Z</time>
      </trkpt>
      <trkpt lat="46.7233523" lon="8.1941217">
        <time>2026-09-14T10:07:13Z</time>
      </trkpt>
      <trkpt lat="46.7233868" lon="8.1940563">
        <time>2026-09-14T10:07:15Z</time>
      </trkpt>
      <trkpt lat="46.7235454" lon="8.1937560">
        <time>2026-09-14T10:07:22Z</time>
      </trkpt>
      <trkpt lat="46.7237048" lon="8.1934540">
        <time>2026-09-14T10:07:29Z</time>
      </trkpt>
      <trkpt lat="46.7237238" lon="8.1934162">
        <time>2026-09-14T10:07:30Z</time>
      </trkpt>
      <trkpt lat="46.7239885" lon="8.1929232">
        <time>2026-09-14T10:07:42Z</time>
      </trkpt>
      <trkpt lat="46.7241074" lon="8.1926917">
        <time>2026-09-14T10:07:48Z</time>
      </trkpt>
      <trkpt lat="46.7244494" lon="8.1921026">
        <time>2026-09-14T10:08:03Z</time>
      </trkpt>
      <trkpt lat="46.7245813" lon="8.1919242">
        <time>2026-09-14T10:08:08Z</time>
      </trkpt>
      <trkpt lat="46.7247862" lon="8.1916414">
        <time>2026-09-14T10:08:16Z</time>
      </trkpt>
      <trkpt lat="46.7249445" lon="8.1914513">
        <time>2026-09-14T10:08:22Z</time>
      </trkpt>
      <trkpt lat="46.7249932" lon="8.1913889">
        <time>2026-09-14T10:08:24Z</time>
      </trkpt>
      <trkpt lat="46.7249992" lon="8.1913514">
        <time>2026-09-14T10:08:25Z</time>
      </trkpt>
      <trkpt lat="46.7250000" lon="8.1913183">
        <time>2026-09-14T10:08:26Z</time>
      </trkpt>
      <trkpt lat="46.7250402" lon="8.1911716">
        <time>2026-09-14T10:08:29Z</time>
      </trkpt>
      <trkpt lat="46.7249658" lon="8.1911357">
        <time>2026-09-14T10:08:31Z</time>
      </trkpt>
      <trkpt lat="46.7250094" lon="8.1909079">
        <time>2026-09-14T10:08:36Z</time>
      </trkpt>
      <trkpt lat="46.7251815" lon="8.1909816">
        <time>2026-09-14T10:08:41Z</time>
      </trkpt>
      <trkpt lat="46.7252437" lon="8.1909298">
        <time>2026-09-14T10:08:43Z</time>
      </trkpt>
      <trkpt lat="46.7251876" lon="8.1907915">
        <time>2026-09-14T10:08:46Z</time>
      </trkpt>
      <trkpt lat="46.7252174" lon="8.1907685">
        <time>2026-09-14T10:08:47Z</time>
      </trkpt>
      <trkpt lat="46.7252459" lon="8.1907369">
        <time>2026-09-14T10:08:48Z</time>
      </trkpt>
      <trkpt lat="46.7252777" lon="8.1906872">
        <time>2026-09-14T10:08:49Z</time>
      </trkpt>
      <trkpt lat="46.7253370" lon="8.1905605">
        <time>2026-09-14T10:08:52Z</time>
      </trkpt>
      <trkpt lat="46.7254266" lon="8.1903461">
        <time>2026-09-14T10:08:57Z</time>
      </trkpt>
      <trkpt lat="46.7254654" lon="8.1902564">
        <time>2026-09-14T10:08:59Z</time>
      </trkpt>
      <trkpt lat="46.7254885" lon="8.1902087">
        <time>2026-09-14T10:09:00Z</time>
      </trkpt>
      <trkpt lat="46.7255191" lon="8.1901675">
        <time>2026-09-14T10:09:01Z</time>
      </trkpt>
      <trkpt lat="46.7255467" lon="8.1901365">
        <time>2026-09-14T10:09:02Z</time>
      </trkpt>
      <trkpt lat="46.7255740" lon="8.1901137">
        <time>2026-09-14T10:09:03Z</time>
      </trkpt>
      <trkpt lat="46.7256041" lon="8.1900962">
        <time>2026-09-14T10:09:04Z</time>
      </trkpt>
      <trkpt lat="46.7256370" lon="8.1900854">
        <time>2026-09-14T10:09:05Z</time>
      </trkpt>
      <trkpt lat="46.7256719" lon="8.1900812">
        <time>2026-09-14T10:09:06Z</time>
      </trkpt>
      <trkpt lat="46.7256953" lon="8.1900824">
        <time>2026-09-14T10:09:07Z</time>
      </trkpt>
      <trkpt lat="46.7257171" lon="8.1900859">
        <time>2026-09-14T10:09:08Z</time>
      </trkpt>
      <trkpt lat="46.7257615" lon="8.1900935">
        <time>2026-09-14T10:09:09Z</time>
      </trkpt>
      <trkpt lat="46.7257856" lon="8.1900958">
        <time>2026-09-14T10:09:10Z</time>
      </trkpt>
      <trkpt lat="46.7258166" lon="8.1900945">
        <time>2026-09-14T10:09:11Z</time>
      </trkpt>
      <trkpt lat="46.7258435" lon="8.1900840">
        <time>2026-09-14T10:09:12Z</time>
      </trkpt>
      <trkpt lat="46.7258809" lon="8.1900623">
        <time>2026-09-14T10:09:13Z</time>
      </trkpt>
      <trkpt lat="46.7259144" lon="8.1900332">
        <time>2026-09-14T10:09:14Z</time>
      </trkpt>
      <trkpt lat="46.7259290" lon="8.1900756">
        <time>2026-09-14T10:09:15Z</time>
      </trkpt>
      <trkpt lat="46.7259476" lon="8.1901083">
        <time>2026-09-14T10:09:16Z</time>
      </trkpt>
      <trkpt lat="46.7259699" lon="8.1901337">
        <time>2026-09-14T10:09:17Z</time>
      </trkpt>
      <trkpt lat="46.7260674" lon="8.1902229">
        <time>2026-09-14T10:09:20Z</time>
      </trkpt>
      <trkpt lat="46.7260993" lon="8.1902462">
        <time>2026-09-14T10:09:21Z</time>
      </trkpt>
      <trkpt lat="46.7261287" lon="8.1902624">
        <time>2026-09-14T10:09:22Z</time>
      </trkpt>
      <trkpt lat="46.7261605" lon="8.1902732">
        <time>2026-09-14T10:09:23Z</time>
      </trkpt>
      <trkpt lat="46.7263651" lon="8.1903384">
        <time>2026-09-14T10:09:29Z</time>
      </trkpt>
      <trkpt lat="46.7267574" lon="8.1904426">
        <time>2026-09-14T10:09:40Z</time>
      </trkpt>
      <trkpt lat="46.7269537" lon="8.1904710">
        <time>2026-09-14T10:09:45Z</time>
      </trkpt>
      <trkpt lat="46.7275804" lon="8.1905148">
        <time>2026-09-14T10:10:02Z</time>
      </trkpt>
      <trkpt lat="46.7276043" lon="8.1904236">
        <time>2026-09-14T10:10:04Z</time>
      </trkpt>
      <trkpt lat="46.7280392" lon="8.1895664">
        <time>2026-09-14T10:10:24Z</time>
      </trkpt>
      <trkpt lat="46.7280575" lon="8.1895298">
        <time>2026-09-14T10:10:25Z</time>
      </trkpt>
      <trkpt lat="46.7283246" lon="8.1890553">
        <time>2026-09-14T10:10:37Z</time>
      </trkpt>
      <trkpt lat="46.7285665" lon="8.1885458">
        <time>2026-09-14T10:10:49Z</time>
      </trkpt>
      <trkpt lat="46.7286016" lon="8.1884681">
        <time>2026-09-14T10:10:51Z</time>
      </trkpt>
      <trkpt lat="46.7286341" lon="8.1883888">
        <time>2026-09-14T10:10:53Z</time>
      </trkpt>
      <trkpt lat="46.7290356" lon="8.1875279">
        <time>2026-09-14T10:11:13Z</time>
      </trkpt>
      <trkpt lat="46.7290571" lon="8.1874864">
        <time>2026-09-14T10:11:14Z</time>
      </trkpt>
      <trkpt lat="46.7293829" lon="8.1868574">
        <time>2026-09-14T10:11:29Z</time>
      </trkpt>
      <trkpt lat="46.7295139" lon="8.1865974">
        <time>2026-09-14T10:11:35Z</time>
      </trkpt>
      <trkpt lat="46.7296438" lon="8.1863396">
        <time>2026-09-14T10:11:41Z</time>
      </trkpt>
      <trkpt lat="46.7296657" lon="8.1863532">
        <time>2026-09-14T10:11:42Z</time>
      </trkpt>
      <trkpt lat="46.7299908" lon="8.1856937">
        <time>2026-09-14T10:11:57Z</time>
      </trkpt>
      <trkpt lat="46.7302725" lon="8.1851667">
        <time>2026-09-14T10:12:10Z</time>
      </trkpt>
      <trkpt lat="46.7306669" lon="8.1843565">
        <time>2026-09-14T10:12:29Z</time>
      </trkpt>
      <trkpt lat="46.7310581" lon="8.1848307">
        <time>2026-09-14T10:12:43Z</time>
      </trkpt>
      <trkpt lat="46.7306669" lon="8.1843565">
        <time>2026-09-14T10:12:57Z</time>
      </trkpt>
      <trkpt lat="46.7302725" lon="8.1851667">
        <time>2026-09-14T10:13:16Z</time>
      </trkpt>
      <trkpt lat="46.7299908" lon="8.1856937">
        <time>2026-09-14T10:13:29Z</time>
      </trkpt>
      <trkpt lat="46.7296657" lon="8.1863532">
        <time>2026-09-14T10:13:44Z</time>
      </trkpt>
      <trkpt lat="46.7296438" lon="8.1863396">
        <time>2026-09-14T10:13:45Z</time>
      </trkpt>
      <trkpt lat="46.7296120" lon="8.1863186">
        <time>2026-09-14T10:13:46Z</time>
      </trkpt>
      <trkpt lat="46.7295016" lon="8.1862457">
        <time>2026-09-14T10:13:49Z</time>
      </trkpt>
      <trkpt lat="46.7293009" lon="8.1861136">
        <time>2026-09-14T10:13:55Z</time>
      </trkpt>
      <trkpt lat="46.7291128" lon="8.1859855">
        <time>2026-09-14T10:14:01Z</time>
      </trkpt>
      <trkpt lat="46.7290594" lon="8.1859423">
        <time>2026-09-14T10:14:03Z</time>
      </trkpt>
      <trkpt lat="46.7285481" lon="8.1855067">
        <time>2026-09-14T10:14:19Z</time>
      </trkpt>
      <trkpt lat="46.7285050" lon="8.1854685">
        <time>2026-09-14T10:14:20Z</time>
      </trkpt>
      <trkpt lat="46.7283267" lon="8.1853485">
        <time>2026-09-14T10:14:25Z</time>
      </trkpt>
      <trkpt lat="46.7282254" lon="8.1852927">
        <time>2026-09-14T10:14:28Z</time>
      </trkpt>
      <trkpt lat="46.7281568" lon="8.1852583">
        <time>2026-09-14T10:14:30Z</time>
      </trkpt>
      <trkpt lat="46.7281128" lon="8.1852399">
        <time>2026-09-14T10:14:31Z</time>
      </trkpt>
      <trkpt lat="46.7280315" lon="8.1852101">
        <time>2026-09-14T10:14:33Z</time>
      </trkpt>
      <trkpt lat="46.7280400" lon="8.1851562">
        <time>2026-09-14T10:14:34Z</time>
      </trkpt>
      <trkpt lat="46.7280571" lon="8.1850476">
        <time>2026-09-14T10:14:36Z</time>
      </trkpt>
      <trkpt lat="46.7280716" lon="8.1849358">
        <time>2026-09-14T10:14:38Z</time>
      </trkpt>
      <trkpt lat="46.7280971" lon="8.1847319">
        <time>2026-09-14T10:14:42Z</time>
      </trkpt>
      <trkpt lat="46.7280632" lon="8.1847188">
        <time>2026-09-14T10:14:43Z</time>
      </trkpt>
      <trkpt lat="46.7280380" lon="8.1847046">
        <time>2026-09-14T10:14:44Z</time>
      </trkpt>
      <trkpt lat="46.7280079" lon="8.1846857">
        <time>2026-09-14T10:14:45Z</time>
      </trkpt>
      <trkpt lat="46.7278934" lon="8.1846055">
        <time>2026-09-14T10:14:49Z</time>
      </trkpt>
      <trkpt lat="46.7277719" lon="8.1845151">
        <time>2026-09-14T10:14:53Z</time>
      </trkpt>
      <trkpt lat="46.7276877" lon="8.1844495">
        <time>2026-09-14T10:14:56Z</time>
      </trkpt>
      <trkpt lat="46.7276532" lon="8.1844258">
        <time>2026-09-14T10:14:57Z</time>
      </trkpt>
      <trkpt lat="46.7276161" lon="8.1844048">
        <time>2026-09-14T10:14:58Z</time>
      </trkpt>
      <trkpt lat="46.7275706" lon="8.1843831">
        <time>2026-09-14T10:14:59Z</time>
      </trkpt>
      <trkpt lat="46.7275050" lon="8.1843591">
        <time>2026-09-14T10:15:01Z</time>
      </trkpt>
      <trkpt lat="46.7274524" lon="8.1845406">
        <time>2026-09-14T10:15:05Z</time>
      </trkpt>
      <trkpt lat="46.7274071" lon="8.1846669">
        <time>2026-09-14T10:15:08Z</time>
      </trkpt>
      <trkpt lat="46.7273777" lon="8.1848113">
        <time>2026-09-14T10:15:11Z</time>
      </trkpt>
      <trkpt lat="46.7273370" lon="8.1848897">
        <time>2026-09-14T10:15:13Z</time>
      </trkpt>
      <trkpt lat="46.7272528" lon="8.1853947">
        <time>2026-09-14T10:15:23Z</time>
      </trkpt>
      <trkpt lat="46.7271242" lon="8.1860670">
        <time>2026-09-14T10:15:36Z</time>
      </trkpt>
      <trkpt lat="46.7271192" lon="8.1861172">
        <time>2026-09-14T10:15:37Z</time>
      </trkpt>
      <trkpt lat="46.7271189" lon="8.1861606">
        <time>2026-09-14T10:15:38Z</time>
      </trkpt>
      <trkpt lat="46.7271253" lon="8.1862830">
        <time>2026-09-14T10:15:40Z</time>
      </trkpt>
      <trkpt lat="46.7271270" lon="8.1865098">
        <time>2026-09-14T10:15:44Z</time>
      </trkpt>
      <trkpt lat="46.7271416" lon="8.1867721">
        <time>2026-09-14T10:15:49Z</time>
      </trkpt>
      <trkpt lat="46.7270830" lon="8.1867219">
        <time>2026-09-14T10:15:51Z</time>
      </trkpt>
      <trkpt lat="46.7270341" lon="8.1866587">
        <time>2026-09-14T10:15:53Z</time>
      </trkpt>
      <trkpt lat="46.7270157" lon="8.1866325">
        <time>2026-09-14T10:15:54Z</time>
      </trkpt>
      <trkpt lat="46.7269263" lon="8.1864944">
        <time>2026-09-14T10:15:58Z</time>
      </trkpt>
      <trkpt lat="46.7268284" lon="8.1863283">
        <time>2026-09-14T10:16:02Z</time>
      </trkpt>
      <trkpt lat="46.7267900" lon="8.1862645">
        <time>2026-09-14T10:16:04Z</time>
      </trkpt>
      <trkpt lat="46.7267619" lon="8.1862084">
        <time>2026-09-14T10:16:05Z</time>
      </trkpt>
      <trkpt lat="46.7266448" lon="8.1859713">
        <time>2026-09-14T10:16:11Z</time>
      </trkpt>
      <trkpt lat="46.7266331" lon="8.1859445">
        <time>2026-09-14T10:16:12Z</time>
      </trkpt>
      <trkpt lat="46.7266023" lon="8.1858643">
        <time>2026-09-14T10:16:14Z</time>
      </trkpt>
      <trkpt lat="46.7265883" lon="8.1858216">
        <time>2026-09-14T10:16:15Z</time>
      </trkpt>
      <trkpt lat="46.7264184" lon="8.1853170">
        <time>2026-09-14T10:16:26Z</time>
      </trkpt>
      <trkpt lat="46.7262346" lon="8.1847837">
        <time>2026-09-14T10:16:37Z</time>
      </trkpt>
      <trkpt lat="46.7261887" lon="8.1846000">
        <time>2026-09-14T10:16:41Z</time>
      </trkpt>
      <trkpt lat="46.7261795" lon="8.1844915">
        <time>2026-09-14T10:16:43Z</time>
      </trkpt>
      <trkpt lat="46.7261794" lon="8.1843333">
        <time>2026-09-14T10:16:46Z</time>
      </trkpt>
      <trkpt lat="46.7262245" lon="8.1839178">
        <time>2026-09-14T10:16:54Z</time>
      </trkpt>
      <trkpt lat="46.7262502" lon="8.1836873">
        <time>2026-09-14T10:16:58Z</time>
      </trkpt>
      <trkpt lat="46.7262273" lon="8.1834500">
        <time>2026-09-14T10:17:03Z</time>
      </trkpt>
      <trkpt lat="46.7260570" lon="8.1825080">
        <time>2026-09-14T10:17:22Z</time>
      </trkpt>
      <trkpt lat="46.7259440" lon="8.1819687">
        <time>2026-09-14T10:17:33Z</time>
      </trkpt>
      <trkpt lat="46.7257458" lon="8.1813687">
        <time>2026-09-14T10:17:46Z</time>
      </trkpt>
      <trkpt lat="46.7255703" lon="8.1808468">
        <time>2026-09-14T10:17:57Z</time>
      </trkpt>
      <trkpt lat="46.7254425" lon="8.1804150">
        <time>2026-09-14T10:18:06Z</time>
      </trkpt>
      <trkpt lat="46.7253396" lon="8.1799816">
        <time>2026-09-14T10:18:15Z</time>
      </trkpt>
      <trkpt lat="46.7253144" lon="8.1797992">
        <time>2026-09-14T10:18:19Z</time>
      </trkpt>
      <trkpt lat="46.7253379" lon="8.1774766">
        <time>2026-09-14T10:19:03Z</time>
      </trkpt>
      <trkpt lat="46.7253503" lon="8.1772724">
        <time>2026-09-14T10:19:07Z</time>
      </trkpt>
      <trkpt lat="46.7253379" lon="8.1774766">
        <time>2026-09-14T10:19:11Z</time>
      </trkpt>
      <trkpt lat="46.7253144" lon="8.1797992">
        <time>2026-09-14T10:19:55Z</time>
      </trkpt>
      <trkpt lat="46.7253396" lon="8.1799816">
        <time>2026-09-14T10:19:59Z</time>
      </trkpt>
      <trkpt lat="46.7254425" lon="8.1804150">
        <time>2026-09-14T10:20:08Z</time>
      </trkpt>
      <trkpt lat="46.7255703" lon="8.1808468">
        <time>2026-09-14T10:20:17Z</time>
      </trkpt>
      <trkpt lat="46.7257458" lon="8.1813687">
        <time>2026-09-14T10:20:28Z</time>
      </trkpt>
      <trkpt lat="46.7259440" lon="8.1819687">
        <time>2026-09-14T10:20:41Z</time>
      </trkpt>
      <trkpt lat="46.7260570" lon="8.1825080">
        <time>2026-09-14T10:20:52Z</time>
      </trkpt>
      <trkpt lat="46.7262273" lon="8.1834500">
        <time>2026-09-14T10:21:11Z</time>
      </trkpt>
      <trkpt lat="46.7262502" lon="8.1836873">
        <time>2026-09-14T10:21:16Z</time>
      </trkpt>
      <trkpt lat="46.7262245" lon="8.1839178">
        <time>2026-09-14T10:21:20Z</time>
      </trkpt>
      <trkpt lat="46.7261794" lon="8.1843333">
        <time>2026-09-14T10:21:28Z</time>
      </trkpt>
      <trkpt lat="46.7261795" lon="8.1844915">
        <time>2026-09-14T10:21:31Z</time>
      </trkpt>
      <trkpt lat="46.7261887" lon="8.1846000">
        <time>2026-09-14T10:21:33Z</time>
      </trkpt>
      <trkpt lat="46.7262346" lon="8.1847837">
        <time>2026-09-14T10:21:37Z</time>
      </trkpt>
      <trkpt lat="46.7264184" lon="8.1853170">
        <time>2026-09-14T10:21:48Z</time>
      </trkpt>
      <trkpt lat="46.7265883" lon="8.1858216">
        <time>2026-09-14T10:21:59Z</time>
      </trkpt>
      <trkpt lat="46.7266023" lon="8.1858643">
        <time>2026-09-14T10:22:00Z</time>
      </trkpt>
      <trkpt lat="46.7266331" lon="8.1859445">
        <time>2026-09-14T10:22:02Z</time>
      </trkpt>
      <trkpt lat="46.7266448" lon="8.1859713">
        <time>2026-09-14T10:22:03Z</time>
      </trkpt>
      <trkpt lat="46.7267619" lon="8.1862084">
        <time>2026-09-14T10:22:09Z</time>
      </trkpt>
      <trkpt lat="46.7267900" lon="8.1862645">
        <time>2026-09-14T10:22:10Z</time>
      </trkpt>
      <trkpt lat="46.7268284" lon="8.1863283">
        <time>2026-09-14T10:22:12Z</time>
      </trkpt>
      <trkpt lat="46.7269263" lon="8.1864944">
        <time>2026-09-14T10:22:16Z</time>
      </trkpt>
      <trkpt lat="46.7270157" lon="8.1866325">
        <time>2026-09-14T10:22:20Z</time>
      </trkpt>
      <trkpt lat="46.7270341" lon="8.1866587">
        <time>2026-09-14T10:22:21Z</time>
      </trkpt>
      <trkpt lat="46.7270830" lon="8.1867219">
        <time>2026-09-14T10:22:23Z</time>
      </trkpt>
      <trkpt lat="46.7271416" lon="8.1867721">
        <time>2026-09-14T10:22:25Z</time>
      </trkpt>
      <trkpt lat="46.7272135" lon="8.1868942">
        <time>2026-09-14T10:22:28Z</time>
      </trkpt>
      <trkpt lat="46.7273054" lon="8.1870259">
        <time>2026-09-14T10:22:32Z</time>
      </trkpt>
      <trkpt lat="46.7273858" lon="8.1871268">
        <time>2026-09-14T10:22:35Z</time>
      </trkpt>
      <trkpt lat="46.7274703" lon="8.1872168">
        <time>2026-09-14T10:22:38Z</time>
      </trkpt>
      <trkpt lat="46.7275609" lon="8.1873192">
        <time>2026-09-14T10:22:41Z</time>
      </trkpt>
      <trkpt lat="46.7276676" lon="8.1874399">
        <time>2026-09-14T10:22:45Z</time>
      </trkpt>
      <trkpt lat="46.7280713" lon="8.1878967">
        <time>2026-09-14T10:22:59Z</time>
      </trkpt>
      <trkpt lat="46.7285240" lon="8.1883845">
        <time>2026-09-14T10:23:15Z</time>
      </trkpt>
      <trkpt lat="46.7286016" lon="8.1884681">
        <time>2026-09-14T10:23:18Z</time>
      </trkpt>
      <trkpt lat="46.7286341" lon="8.1883888">
        <time>2026-09-14T10:23:20Z</time>
      </trkpt>
      <trkpt lat="46.7290356" lon="8.1875279">
        <time>2026-09-14T10:23:40Z</time>
      </trkpt>
      <trkpt lat="46.7290571" lon="8.1874864">
        <time>2026-09-14T10:23:41Z</time>
      </trkpt>
      <trkpt lat="46.7293829" lon="8.1868574">
        <time>2026-09-14T10:23:56Z</time>
      </trkpt>
      <trkpt lat="46.7295139" lon="8.1865974">
        <time>2026-09-14T10:24:02Z</time>
      </trkpt>
      <trkpt lat="46.7296438" lon="8.1863396">
        <time>2026-09-14T10:24:08Z</time>
      </trkpt>
      <trkpt lat="46.7296657" lon="8.1863532">
        <time>2026-09-14T10:24:09Z</time>
      </trkpt>
      <trkpt lat="46.7299908" lon="8.1856937">
        <time>2026-09-14T10:24:24Z</time>
      </trkpt>
      <trkpt lat="46.7302725" lon="8.1851667">
        <time>2026-09-14T10:24:37Z</time>
      </trkpt>
      <trkpt lat="46.7306669" lon="8.1843565">
        <time>2026-09-14T10:24:56Z</time>
      </trkpt>
      <trkpt lat="46.7310581" lon="8.1848307">
        <time>2026-09-14T10:25:10Z</time>
      </trkpt>
      <trkpt lat="46.7306669" lon="8.1843565">
        <time>2026-09-14T10:25:24Z</time>
      </trkpt>
      <trkpt lat="46.7302725" lon="8.1851667">
        <time>2026-09-14T10:25:43Z</time>
      </trkpt>
      <trkpt lat="46.7299908" lon="8.1856937">
        <time>2026-09-14T10:25:56Z</time>
      </trkpt>
      <trkpt lat="46.7296657" lon="8.1863532">
        <time>2026-09-14T10:26:11Z</time>
      </trkpt>
      <trkpt lat="46.7296438" lon="8.1863396">
        <time>2026-09-14T10:26:12Z</time>
      </trkpt>
      <trkpt lat="46.7296120" lon="8.1863186">
        <time>2026-09-14T10:26:13Z</time>
      </trkpt>
      <trkpt lat="46.7295016" lon="8.1862457">
        <time>2026-09-14T10:26:16Z</time>
      </trkpt>
      <trkpt lat="46.7293009" lon="8.1861136">
        <time>2026-09-14T10:26:22Z</time>
      </trkpt>
      <trkpt lat="46.7291128" lon="8.1859855">
        <time>2026-09-14T10:26:28Z</time>
      </trkpt>
      <trkpt lat="46.7290594" lon="8.1859423">
        <time>2026-09-14T10:26:30Z</time>
      </trkpt>
      <trkpt lat="46.7285481" lon="8.1855067">
        <time>2026-09-14T10:26:46Z</time>
      </trkpt>
      <trkpt lat="46.7285050" lon="8.1854685">
        <time>2026-09-14T10:26:47Z</time>
      </trkpt>
      <trkpt lat="46.7283267" lon="8.1853485">
        <time>2026-09-14T10:26:52Z</time>
      </trkpt>
      <trkpt lat="46.7282254" lon="8.1852927">
        <time>2026-09-14T10:26:55Z</time>
      </trkpt>
      <trkpt lat="46.7281568" lon="8.1852583">
        <time>2026-09-14T10:26:57Z</time>
      </trkpt>
      <trkpt lat="46.7281128" lon="8.1852399">
        <time>2026-09-14T10:26:58Z</time>
      </trkpt>
      <trkpt lat="46.7280315" lon="8.1852101">
        <time>2026-09-14T10:27:00Z</time>
      </trkpt>
      <trkpt lat="46.7280400" lon="8.1851562">
        <time>2026-09-14T10:27:01Z</time>
      </trkpt>
      <trkpt lat="46.7280571" lon="8.1850476">
        <time>2026-09-14T10:27:03Z</time>
      </trkpt>
      <trkpt lat="46.7280716" lon="8.1849358">
        <time>2026-09-14T10:27:05Z</time>
      </trkpt>
      <trkpt lat="46.7280971" lon="8.1847319">
        <time>2026-09-14T10:27:09Z</time>
      </trkpt>
      <trkpt lat="46.7280632" lon="8.1847188">
        <time>2026-09-14T10:27:10Z</time>
      </trkpt>
      <trkpt lat="46.7280380" lon="8.1847046">
        <time>2026-09-14T10:27:11Z</time>
      </trkpt>
      <trkpt lat="46.7280079" lon="8.1846857">
        <time>2026-09-14T10:27:12Z</time>
      </trkpt>
      <trkpt lat="46.7278934" lon="8.1846055">
        <time>2026-09-14T10:27:16Z</time>
      </trkpt>
      <trkpt lat="46.7277719" lon="8.1845151">
        <time>2026-09-14T10:27:20Z</time>
      </trkpt>
      <trkpt lat="46.7276877" lon="8.1844495">
        <time>2026-09-14T10:27:23Z</time>
      </trkpt>
      <trkpt lat="46.7276532" lon="8.1844258">
        <time>2026-09-14T10:27:24Z</time>
      </trkpt>
      <trkpt lat="46.7276161" lon="8.1844048">
        <time>2026-09-14T10:27:25Z</time>
      </trkpt>
      <trkpt lat="46.7275706" lon="8.1843831">
        <time>2026-09-14T10:27:26Z</time>
      </trkpt>
      <trkpt lat="46.7275050" lon="8.1843591">
        <time>2026-09-14T10:27:28Z</time>
      </trkpt>
    </trkseg>
  </trk>
</gpx>