<?xml version="1.0" encoding="UTF-8"?>
<gpx version="1.1" creator="obc-sim grimsel" xmlns="http://www.topografix.com/GPX/1/1">
  <trk><name>Grimselpass climb</name><trkseg>
<trkpt lat="46.601847" lon="8.317840"><ele>1529.7</ele><time>2025-09-11T08:00:00Z</time></trkpt>
<trkpt lat="46.601685" lon="8.317895"><ele>1531.4</ele><time>2025-09-11T08:00:05Z</time></trkpt>
<trkpt lat="46.601477" lon="8.317988"><ele>1533.5</ele><time>2025-09-11T08:00:13Z</time></trkpt>
<trkpt lat="46.601308" lon="8.318084"><ele>1535.3</ele><time>2025-09-11T08:00:19Z</time></trkpt>
<trkpt lat="46.601100" lon="8.318304"><ele>1537.9</ele><time>2025-09-11T08:00:27Z</time></trkpt>
<trkpt lat="46.601046" lon="8.318495"><ele>1539.3</ele><time>2025-09-11T08:00:32Z</time></trkpt>
<trkpt lat="46.600995" lon="8.318581"><ele>1540.3</ele><time>2025-09-11T08:00:36Z</time></trkpt>
<trkpt lat="46.600912" lon="8.318720"><ele>1541.5</ele><time>2025-09-11T08:00:40Z</time></trkpt>
<trkpt lat="46.600742" lon="8.318980"><ele>1543.9</ele><time>2025-09-11T08:00:48Z</time></trkpt>
<trkpt lat="46.600624" lon="8.319182"><ele>1545.7</ele><time>2025-09-11T08:00:55Z</time></trkpt>
<trkpt lat="46.600535" lon="8.319447"><ele>1547.7</ele><time>2025-09-11T08:01:01Z</time></trkpt>
<trkpt lat="46.600513" lon="8.319676"><ele>1549.3</ele><time>2025-09-11T08:01:07Z</time></trkpt>
<trkpt lat="46.600448" lon="8.319897"><ele>1551.0</ele><time>2025-09-11T08:01:13Z</time></trkpt>
<trkpt lat="46.600421" lon="8.320039"><ele>1552.1</ele><time>2025-09-11T08:01:17Z</time></trkpt>
<trkpt lat="46.600254" lon="8.320284"><ele>1554.4</ele><time>2025-09-11T08:01:25Z</time></trkpt>
<trkpt lat="46.600116" lon="8.320458"><ele>1556.2</ele><time>2025-09-11T08:01:31Z</time></trkpt>
<trkpt lat="46.599958" lon="8.320535"><ele>1557.8</ele><time>2025-09-11T08:01:37Z</time></trkpt>
<trkpt lat="46.599517" lon="8.320920"><ele>1562.8</ele><time>2025-09-11T08:01:54Z</time></trkpt>
<trkpt lat="46.599366" lon="8.321177"><ele>1565.0</ele><time>2025-09-11T08:02:02Z</time></trkpt>
<trkpt lat="46.599281" lon="8.321286"><ele>1566.0</ele><time>2025-09-11T08:02:06Z</time></trkpt>
<trkpt lat="46.599146" lon="8.321405"><ele>1567.5</ele><time>2025-09-11T08:02:11Z</time></trkpt>
<trkpt lat="46.598989" lon="8.321553"><ele>1569.3</ele><time>2025-09-11T08:02:18Z</time></trkpt>
<trkpt lat="46.598769" lon="8.321852"><ele>1572.2</ele><time>2025-09-11T08:02:28Z</time></trkpt>
<trkpt lat="46.598709" lon="8.322240"><ele>1574.6</ele><time>2025-09-11T08:02:37Z</time></trkpt>
<trkpt lat="46.598687" lon="8.322458"><ele>1576.0</ele><time>2025-09-11T08:02:42Z</time></trkpt>
<trkpt lat="46.598677" lon="8.322739"><ele>1577.8</ele><time>2025-09-11T08:02:49Z</time></trkpt>
<trkpt lat="46.598669" lon="8.322997"><ele>1579.4</ele><time>2025-09-11T08:02:55Z</time></trkpt>
<trkpt lat="46.598692" lon="8.323129"><ele>1580.3</ele><time>2025-09-11T08:02:58Z</time></trkpt>
<trkpt lat="46.598621" lon="8.323534"><ele>1582.9</ele><time>2025-09-11T08:03:08Z</time></trkpt>
<trkpt lat="46.598571" lon="8.323902"><ele>1585.2</ele><time>2025-09-11T08:03:16Z</time></trkpt>
<trkpt lat="46.598501" lon="8.324283"><ele>1587.7</ele><time>2025-09-11T08:03:25Z</time></trkpt>
<trkpt lat="46.598302" lon="8.324598"><ele>1590.6</ele><time>2025-09-11T08:03:35Z</time></trkpt>
<trkpt lat="46.597987" lon="8.324776"><ele>1593.9</ele><time>2025-09-11T08:03:47Z</time></trkpt>
<trkpt lat="46.597717" lon="8.324994"><ele>1596.8</ele><time>2025-09-11T08:03:57Z</time></trkpt>
<trkpt lat="46.597527" lon="8.325183"><ele>1599.1</ele><time>2025-09-11T08:04:05Z</time></trkpt>
<trkpt lat="46.597419" lon="8.325349"><ele>1600.6</ele><time>2025-09-11T08:04:10Z</time></trkpt>
<trkpt lat="46.597287" lon="8.325478"><ele>1602.1</ele><time>2025-09-11T08:04:15Z</time></trkpt>
<trkpt lat="46.597082" lon="8.325571"><ele>1604.2</ele><time>2025-09-11T08:04:23Z</time></trkpt>
<trkpt lat="46.596941" lon="8.325574"><ele>1605.7</ele><time>2025-09-11T08:04:27Z</time></trkpt>
<trkpt lat="46.596763" lon="8.325517"><ele>1607.6</ele><time>2025-09-11T08:04:34Z</time></trkpt>
<trkpt lat="46.596616" lon="8.325357"><ele>1609.5</ele><time>2025-09-11T08:04:40Z</time></trkpt>
<trkpt lat="46.596515" lon="8.325075"><ele>1611.8</ele><time>2025-09-11T08:04:47Z</time></trkpt>
<trkpt lat="46.596459" lon="8.324766"><ele>1614.0</ele><time>2025-09-11T08:04:54Z</time></trkpt>
<trkpt lat="46.596417" lon="8.324467"><ele>1616.2</ele><time>2025-09-11T08:05:01Z</time></trkpt>
<trkpt lat="46.596352" lon="8.324119"><ele>1618.8</ele><time>2025-09-11T08:05:10Z</time></trkpt>
<trkpt lat="46.596258" lon="8.323792"><ele>1621.3</ele><time>2025-09-11T08:05:18Z</time></trkpt>
<trkpt lat="46.596117" lon="8.323453"><ele>1624.0</ele><time>2025-09-11T08:05:27Z</time></trkpt>
<trkpt lat="46.595976" lon="8.323215"><ele>1626.0</ele><time>2025-09-11T08:05:34Z</time></trkpt>
<trkpt lat="46.595799" lon="8.322981"><ele>1628.2</ele><time>2025-09-11T08:05:42Z</time></trkpt>
<trkpt lat="46.595602" lon="8.322808"><ele>1630.3</ele><time>2025-09-11T08:05:50Z</time></trkpt>
<trkpt lat="46.595317" lon="8.322593"><ele>1633.3</ele><time>2025-09-11T08:06:01Z</time></trkpt>
<trkpt lat="46.595062" lon="8.322428"><ele>1635.8</ele><time>2025-09-11T08:06:10Z</time></trkpt>
<trkpt lat="46.594837" lon="8.322373"><ele>1637.9</ele><time>2025-09-11T08:06:18Z</time></trkpt>
<trkpt lat="46.594615" lon="8.322426"><ele>1640.0</ele><time>2025-09-11T08:06:25Z</time></trkpt>
<trkpt lat="46.594465" lon="8.322510"><ele>1641.6</ele><time>2025-09-11T08:06:31Z</time></trkpt>
<trkpt lat="46.594348" lon="8.322568"><ele>1642.7</ele><time>2025-09-11T08:06:35Z</time></trkpt>
<trkpt lat="46.594088" lon="8.322791"><ele>1645.6</ele><time>2025-09-11T08:06:45Z</time></trkpt>
<trkpt lat="46.593859" lon="8.323022"><ele>1648.2</ele><time>2025-09-11T08:06:54Z</time></trkpt>
<trkpt lat="46.593699" lon="8.323213"><ele>1650.1</ele><time>2025-09-11T08:07:01Z</time></trkpt>
<trkpt lat="46.593542" lon="8.323447"><ele>1652.2</ele><time>2025-09-11T08:07:09Z</time></trkpt>
<trkpt lat="46.593416" lon="8.323590"><ele>1653.7</ele><time>2025-09-11T08:07:14Z</time></trkpt>
<trkpt lat="46.593286" lon="8.323746"><ele>1655.3</ele><time>2025-09-11T08:07:20Z</time></trkpt>
<trkpt lat="46.593064" lon="8.323874"><ele>1657.5</ele><time>2025-09-11T08:07:28Z</time></trkpt>
<trkpt lat="46.592745" lon="8.323952"><ele>1660.6</ele><time>2025-09-11T08:07:39Z</time></trkpt>
<trkpt lat="46.592535" lon="8.323978"><ele>1662.6</ele><time>2025-09-11T08:07:46Z</time></trkpt>
<trkpt lat="46.592276" lon="8.324041"><ele>1665.0</ele><time>2025-09-11T08:07:54Z</time></trkpt>
<trkpt lat="46.592099" lon="8.324157"><ele>1666.9</ele><time>2025-09-11T08:08:01Z</time></trkpt>
<trkpt lat="46.591908" lon="8.324303"><ele>1668.9</ele><time>2025-09-11T08:08:08Z</time></trkpt>
<trkpt lat="46.591677" lon="8.324432"><ele>1671.3</ele><time>2025-09-11T08:08:16Z</time></trkpt>
<trkpt lat="46.591446" lon="8.324513"><ele>1673.4</ele><time>2025-09-11T08:08:24Z</time></trkpt>
<trkpt lat="46.591157" lon="8.324635"><ele>1675.7</ele><time>2025-09-11T08:08:35Z</time></trkpt>
<trkpt lat="46.591124" lon="8.325000"><ele>1677.8</ele><time>2025-09-11T08:08:44Z</time></trkpt>
<trkpt lat="46.591370" lon="8.324993"><ele>1679.7</ele><time>2025-09-11T08:08:53Z</time></trkpt>
<trkpt lat="46.591634" lon="8.324706"><ele>1682.2</ele><time>2025-09-11T08:09:04Z</time></trkpt>
<trkpt lat="46.591895" lon="8.324533"><ele>1684.3</ele><time>2025-09-11T08:09:13Z</time></trkpt>
<trkpt lat="46.592141" lon="8.324455"><ele>1686.1</ele><time>2025-09-11T08:09:22Z</time></trkpt>
<trkpt lat="46.592377" lon="8.324372"><ele>1688.3</ele><time>2025-09-11T08:09:30Z</time></trkpt>
<trkpt lat="46.592585" lon="8.324313"><ele>1690.2</ele><time>2025-09-11T08:09:37Z</time></trkpt>
<trkpt lat="46.592773" lon="8.324313"><ele>1691.9</ele><time>2025-09-11T08:09:43Z</time></trkpt>
<trkpt lat="46.592992" lon="8.324466"><ele>1694.1</ele><time>2025-09-11T08:09:51Z</time></trkpt>
<trkpt lat="46.593104" lon="8.324618"><ele>1695.5</ele><time>2025-09-11T08:09:57Z</time></trkpt>
<trkpt lat="46.593233" lon="8.324896"><ele>1697.6</ele><time>2025-09-11T08:10:04Z</time></trkpt>
<trkpt lat="46.593327" lon="8.325161"><ele>1699.4</ele><time>2025-09-11T08:10:11Z</time></trkpt>
<trkpt lat="46.593515" lon="8.325427"><ele>1701.8</ele><time>2025-09-11T08:10:20Z</time></trkpt>
<trkpt lat="46.593756" lon="8.325518"><ele>1703.9</ele><time>2025-09-11T08:10:28Z</time></trkpt>
<trkpt lat="46.594073" lon="8.325610"><ele>1706.5</ele><time>2025-09-11T08:10:39Z</time></trkpt>
<trkpt lat="46.594296" lon="8.325845"><ele>1708.8</ele><time>2025-09-11T08:10:49Z</time></trkpt>
<trkpt lat="46.594099" lon="8.326168"><ele>1711.5</ele><time>2025-09-11T08:11:00Z</time></trkpt>
<trkpt lat="46.593872" lon="8.326028"><ele>1713.5</ele><time>2025-09-11T08:11:09Z</time></trkpt>
<trkpt lat="46.593733" lon="8.325839"><ele>1715.0</ele><time>2025-09-11T08:11:15Z</time></trkpt>
<trkpt lat="46.593542" lon="8.325740"><ele>1716.6</ele><time>2025-09-11T08:11:22Z</time></trkpt>
<trkpt lat="46.593441" lon="8.325729"><ele>1717.6</ele><time>2025-09-11T08:11:25Z</time></trkpt>
<trkpt lat="46.593333" lon="8.325707"><ele>1718.7</ele><time>2025-09-11T08:11:29Z</time></trkpt>
<trkpt lat="46.593104" lon="8.325716"><ele>1721.0</ele><time>2025-09-11T08:11:36Z</time></trkpt>
<trkpt lat="46.592891" lon="8.325628"><ele>1723.2</ele><time>2025-09-11T08:11:44Z</time></trkpt>
<trkpt lat="46.592707" lon="8.325373"><ele>1725.8</ele><time>2025-09-11T08:11:53Z</time></trkpt>
<trkpt lat="46.592551" lon="8.325018"><ele>1728.7</ele><time>2025-09-11T08:12:02Z</time></trkpt>
<trkpt lat="46.592540" lon="8.324953"><ele>1729.3</ele><time>2025-09-11T08:12:04Z</time></trkpt>
<trkpt lat="46.592543" lon="8.324951"><ele>1729.4</ele><time>2025-09-11T08:12:05Z</time></trkpt>
<trkpt lat="46.592463" lon="8.324926"><ele>1730.3</ele><time>2025-09-11T08:12:08Z</time></trkpt>
<trkpt lat="46.592158" lon="8.325054"><ele>1733.8</ele><time>2025-09-11T08:12:19Z</time></trkpt>
<trkpt lat="46.592041" lon="8.325455"><ele>1736.8</ele><time>2025-09-11T08:12:29Z</time></trkpt>
<trkpt lat="46.591924" lon="8.325697"><ele>1738.8</ele><time>2025-09-11T08:12:36Z</time></trkpt>
<trkpt lat="46.591777" lon="8.325905"><ele>1740.9</ele><time>2025-09-11T08:12:43Z</time></trkpt>
<trkpt lat="46.591598" lon="8.326046"><ele>1742.9</ele><time>2025-09-11T08:12:50Z</time></trkpt>
<trkpt lat="46.591408" lon="8.326205"><ele>1745.0</ele><time>2025-09-11T08:12:57Z</time></trkpt>
<trkpt lat="46.591290" lon="8.326394"><ele>1746.8</ele><time>2025-09-11T08:13:03Z</time></trkpt>
<trkpt lat="46.591119" lon="8.326626"><ele>1749.2</ele><time>2025-09-11T08:13:11Z</time></trkpt>
<trkpt lat="46.591019" lon="8.326861"><ele>1751.0</ele><time>2025-09-11T08:13:17Z</time></trkpt>
<trkpt lat="46.590905" lon="8.327052"><ele>1752.8</ele><time>2025-09-11T08:13:23Z</time></trkpt>
<trkpt lat="46.590817" lon="8.327270"><ele>1753.8</ele><time>2025-09-11T08:13:29Z</time></trkpt>
<trkpt lat="46.590728" lon="8.327447"><ele>1754.7</ele><time>2025-09-11T08:13:34Z</time></trkpt>
<trkpt lat="46.590640" lon="8.327645"><ele>1755.7</ele><time>2025-09-11T08:13:40Z</time></trkpt>
<trkpt lat="46.590620" lon="8.327918"><ele>1756.8</ele><time>2025-09-11T08:13:46Z</time></trkpt>
<trkpt lat="46.590582" lon="8.328396"><ele>1758.7</ele><time>2025-09-11T08:13:57Z</time></trkpt>
<trkpt lat="46.590514" lon="8.328524"><ele>1759.8</ele><time>2025-09-11T08:14:04Z</time></trkpt>
<trkpt lat="46.590562" lon="8.328237"><ele>1761.0</ele><time>2025-09-11T08:14:11Z</time></trkpt>
<trkpt lat="46.590535" lon="8.327713"><ele>1763.1</ele><time>2025-09-11T08:14:23Z</time></trkpt>
<trkpt lat="46.590394" lon="8.326989"><ele>1763.4</ele><time>2025-09-11T08:14:40Z</time></trkpt>
<trkpt lat="46.590310" lon="8.326559"><ele>1763.5</ele><time>2025-09-11T08:14:50Z</time></trkpt>
<trkpt lat="46.590260" lon="8.326417"><ele>1763.5</ele><time>2025-09-11T08:14:54Z</time></trkpt>
<trkpt lat="46.590385" lon="8.326866"><ele>1763.6</ele><time>2025-09-11T08:15:07Z</time></trkpt>
<trkpt lat="46.590445" lon="8.327301"><ele>1763.7</ele><time>2025-09-11T08:15:17Z</time></trkpt>
<trkpt lat="46.590530" lon="8.328560"><ele>1763.5</ele><time>2025-09-11T08:15:46Z</time></trkpt>
<trkpt lat="46.590114" lon="8.329181"><ele>1763.3</ele><time>2025-09-11T08:16:07Z</time></trkpt>
<trkpt lat="46.589582" lon="8.330001"><ele>1762.9</ele><time>2025-09-11T08:16:33Z</time></trkpt>
<trkpt lat="46.588769" lon="8.331372"><ele>1762.4</ele><time>2025-09-11T08:17:14Z</time></trkpt>
<trkpt lat="46.588266" lon="8.331469"><ele>1762.4</ele><time>2025-09-11T08:17:32Z</time></trkpt>
<trkpt lat="46.587504" lon="8.331077"><ele>1762.8</ele><time>2025-09-11T08:17:59Z</time></trkpt>
<trkpt lat="46.586975" lon="8.331733"><ele>1763.1</ele><time>2025-09-11T08:18:23Z</time></trkpt>
<trkpt lat="46.586098" lon="8.332472"><ele>1763.1</ele><time>2025-09-11T08:18:57Z</time></trkpt>
<trkpt lat="46.584900" lon="8.333002"><ele>1763.2</ele><time>2025-09-11T08:19:40Z</time></trkpt>
<trkpt lat="46.583805" lon="8.333223"><ele>1763.4</ele><time>2025-09-11T08:20:17Z</time></trkpt>
<trkpt lat="46.582110" lon="8.332933"><ele>1764.6</ele><time>2025-09-11T08:21:15Z</time></trkpt>
<trkpt lat="46.581107" lon="8.333148"><ele>1765.3</ele><time>2025-09-11T08:21:49Z</time></trkpt>
<trkpt lat="46.580429" lon="8.333993"><ele>1765.8</ele><time>2025-09-11T08:22:19Z</time></trkpt>
<trkpt lat="46.579898" lon="8.334312"><ele>1768.9</ele><time>2025-09-11T08:22:38Z</time></trkpt>
<trkpt lat="46.579605" lon="8.334539"><ele>1771.1</ele><time>2025-09-11T08:22:49Z</time></trkpt>
<trkpt lat="46.579417" lon="8.334792"><ele>1772.8</ele><time>2025-09-11T08:22:58Z</time></trkpt>
<trkpt lat="46.579277" lon="8.335116"><ele>1774.6</ele><time>2025-09-11T08:23:07Z</time></trkpt>
<trkpt lat="46.579064" lon="8.335570"><ele>1777.1</ele><time>2025-09-11T08:23:19Z</time></trkpt>
<trkpt lat="46.578949" lon="8.335829"><ele>1778.7</ele><time>2025-09-11T08:23:27Z</time></trkpt>
<trkpt lat="46.578778" lon="8.336137"><ele>1781.0</ele><time>2025-09-11T08:23:36Z</time></trkpt>
<trkpt lat="46.578577" lon="8.336423"><ele>1783.3</ele><time>2025-09-11T08:23:45Z</time></trkpt>
<trkpt lat="46.578364" lon="8.336719"><ele>1785.8</ele><time>2025-09-11T08:23:55Z</time></trkpt>
<trkpt lat="46.578156" lon="8.336973"><ele>1788.1</ele><time>2025-09-11T08:24:04Z</time></trkpt>
<trkpt lat="46.578030" lon="8.337155"><ele>1789.6</ele><time>2025-09-11T08:24:10Z</time></trkpt>
<trkpt lat="46.577794" lon="8.337365"><ele>1791.9</ele><time>2025-09-11T08:24:19Z</time></trkpt>
<trkpt lat="46.577572" lon="8.337439"><ele>1794.0</ele><time>2025-09-11T08:24:27Z</time></trkpt>
<trkpt lat="46.577381" lon="8.337388"><ele>1795.9</ele><time>2025-09-11T08:24:34Z</time></trkpt>
<trkpt lat="46.577195" lon="8.337262"><ele>1797.8</ele><time>2025-09-11T08:24:41Z</time></trkpt>
<trkpt lat="46.577003" lon="8.337092"><ele>1800.0</ele><time>2025-09-11T08:24:48Z</time></trkpt>
<trkpt lat="46.576768" lon="8.337008"><ele>1802.4</ele><time>2025-09-11T08:24:56Z</time></trkpt>
<trkpt lat="46.576609" lon="8.337029"><ele>1803.9</ele><time>2025-09-11T08:25:02Z</time></trkpt>
<trkpt lat="46.576370" lon="8.337204"><ele>1806.5</ele><time>2025-09-11T08:25:11Z</time></trkpt>
<trkpt lat="46.576210" lon="8.337409"><ele>1808.6</ele><time>2025-09-11T08:25:18Z</time></trkpt>
<trkpt lat="46.576127" lon="8.337530"><ele>1809.7</ele><time>2025-09-11T08:25:22Z</time></trkpt>
<trkpt lat="46.576024" lon="8.337658"><ele>1811.0</ele><time>2025-09-11T08:25:26Z</time></trkpt>
<trkpt lat="46.575851" lon="8.337839"><ele>1813.0</ele><time>2025-09-11T08:25:34Z</time></trkpt>
<trkpt lat="46.575648" lon="8.337975"><ele>1815.2</ele><time>2025-09-11T08:25:41Z</time></trkpt>
<trkpt lat="46.575586" lon="8.337991"><ele>1815.8</ele><time>2025-09-11T08:25:43Z</time></trkpt>
<trkpt lat="46.575439" lon="8.338031"><ele>1817.2</ele><time>2025-09-11T08:25:48Z</time></trkpt>
<trkpt lat="46.575189" lon="8.338036"><ele>1819.6</ele><time>2025-09-11T08:25:57Z</time></trkpt>
<trkpt lat="46.574894" lon="8.337957"><ele>1822.5</ele><time>2025-09-11T08:26:07Z</time></trkpt>
<trkpt lat="46.574639" lon="8.337858"><ele>1825.0</ele><time>2025-09-11T08:26:15Z</time></trkpt>
<trkpt lat="46.574400" lon="8.337735"><ele>1827.4</ele><time>2025-09-11T08:26:24Z</time></trkpt>
<trkpt lat="46.574169" lon="8.337591"><ele>1829.8</ele><time>2025-09-11T08:26:32Z</time></trkpt>
<trkpt lat="46.574004" lon="8.337452"><ele>1831.6</ele><time>2025-09-11T08:26:39Z</time></trkpt>
<trkpt lat="46.573828" lon="8.337115"><ele>1834.4</ele><time>2025-09-11T08:26:48Z</time></trkpt>
<trkpt lat="46.573780" lon="8.336891"><ele>1836.0</ele><time>2025-09-11T08:26:54Z</time></trkpt>
<trkpt lat="46.573767" lon="8.336592"><ele>1837.9</ele><time>2025-09-11T08:27:01Z</time></trkpt>
<trkpt lat="46.573741" lon="8.336430"><ele>1839.0</ele><time>2025-09-11T08:27:05Z</time></trkpt>
<trkpt lat="46.573543" lon="8.336244"><ele>1841.4</ele><time>2025-09-11T08:27:13Z</time></trkpt>
<trkpt lat="46.573410" lon="8.336383"><ele>1843.2</ele><time>2025-09-11T08:27:19Z</time></trkpt>
<trkpt lat="46.573436" lon="8.336690"><ele>1845.2</ele><time>2025-09-11T08:27:27Z</time></trkpt>
<trkpt lat="46.573493" lon="8.336992"><ele>1847.2</ele><time>2025-09-11T08:27:34Z</time></trkpt>
<trkpt lat="46.573553" lon="8.337250"><ele>1849.0</ele><time>2025-09-11T08:27:40Z</time></trkpt>
<trkpt lat="46.573599" lon="8.337523"><ele>1850.8</ele><time>2025-09-11T08:27:47Z</time></trkpt>
<trkpt lat="46.573681" lon="8.337785"><ele>1852.7</ele><time>2025-09-11T08:27:53Z</time></trkpt>
<trkpt lat="46.573769" lon="8.338068"><ele>1854.7</ele><time>2025-09-11T08:28:00Z</time></trkpt>
<trkpt lat="46.573918" lon="8.338427"><ele>1857.4</ele><time>2025-09-11T08:28:10Z</time></trkpt>
<trkpt lat="46.574069" lon="8.338668"><ele>1859.5</ele><time>2025-09-11T08:28:18Z</time></trkpt>
<trkpt lat="46.574294" lon="8.338891"><ele>1861.9</ele><time>2025-09-11T08:28:27Z</time></trkpt>
<trkpt lat="46.574482" lon="8.339068"><ele>1863.7</ele><time>2025-09-11T08:28:34Z</time></trkpt>
<trkpt lat="46.574586" lon="8.338992"><ele>1865.0</ele><time>2025-09-11T08:28:40Z</time></trkpt>
<trkpt lat="46.574667" lon="8.339207"><ele>1866.3</ele><time>2025-09-11T08:28:45Z</time></trkpt>
<trkpt lat="46.574876" lon="8.339389"><ele>1868.3</ele><time>2025-09-11T08:28:53Z</time></trkpt>
<trkpt lat="46.575131" lon="8.339540"><ele>1870.5</ele><time>2025-09-11T08:29:03Z</time></trkpt>
<trkpt lat="46.575378" lon="8.339611"><ele>1872.5</ele><time>2025-09-11T08:29:11Z</time></trkpt>
<trkpt lat="46.575654" lon="8.339603"><ele>1874.7</ele><time>2025-09-11T08:29:20Z</time></trkpt>
<trkpt lat="46.575926" lon="8.339536"><ele>1876.8</ele><time>2025-09-11T08:29:29Z</time></trkpt>
<trkpt lat="46.576115" lon="8.339453"><ele>1878.1</ele><time>2025-09-11T08:29:36Z</time></trkpt>
<trkpt lat="46.576386" lon="8.339404"><ele>1880.1</ele><time>2025-09-11T08:29:46Z</time></trkpt>
<trkpt lat="46.576421" lon="8.339595"><ele>1881.1</ele><time>2025-09-11T08:29:51Z</time></trkpt>
<trkpt lat="46.576091" lon="8.339716"><ele>1883.6</ele><time>2025-09-11T08:30:02Z</time></trkpt>
<trkpt lat="46.575812" lon="8.339732"><ele>1885.6</ele><time>2025-09-11T08:30:12Z</time></trkpt>
<trkpt lat="46.575521" lon="8.339822"><ele>1887.6</ele><time>2025-09-11T08:30:22Z</time></trkpt>
<trkpt lat="46.575344" lon="8.339873"><ele>1888.8</ele><time>2025-09-11T08:30:28Z</time></trkpt>
<trkpt lat="46.575092" lon="8.339964"><ele>1890.5</ele><time>2025-09-11T08:30:36Z</time></trkpt>
<trkpt lat="46.574859" lon="8.340023"><ele>1892.1</ele><time>2025-09-11T08:30:44Z</time></trkpt>
<trkpt lat="46.574569" lon="8.340104"><ele>1894.0</ele><time>2025-09-11T08:30:54Z</time></trkpt>
<trkpt lat="46.574357" lon="8.340097"><ele>1895.4</ele><time>2025-09-11T08:31:01Z</time></trkpt>
<trkpt lat="46.574358" lon="8.340124"><ele>1895.7</ele><time>2025-09-11T08:31:03Z</time></trkpt>
<trkpt lat="46.574377" lon="8.340191"><ele>1896.1</ele><time>2025-09-11T08:31:05Z</time></trkpt>
<trkpt lat="46.574024" lon="8.340212"><ele>1898.5</ele><time>2025-09-11T08:31:17Z</time></trkpt>
<trkpt lat="46.573747" lon="8.340132"><ele>1899.8</ele><time>2025-09-11T08:31:27Z</time></trkpt>
<trkpt lat="46.573689" lon="8.339903"><ele>1900.0</ele><time>2025-09-11T08:31:33Z</time></trkpt>
<trkpt lat="46.573698" lon="8.339408"><ele>1900.3</ele><time>2025-09-11T08:31:44Z</time></trkpt>
<trkpt lat="46.573691" lon="8.339342"><ele>1900.4</ele><time>2025-09-11T08:31:46Z</time></trkpt>
<trkpt lat="46.573691" lon="8.339342"><ele>1900.4</ele><time>2025-09-11T08:31:48Z</time></trkpt>
<trkpt lat="46.573689" lon="8.339320"><ele>1900.4</ele><time>2025-09-11T08:31:49Z</time></trkpt>
<trkpt lat="46.573691" lon="8.339335"><ele>1900.5</ele><time>2025-09-11T08:31:51Z</time></trkpt>
<trkpt lat="46.573688" lon="8.339351"><ele>1900.5</ele><time>2025-09-11T08:31:52Z</time></trkpt>
<trkpt lat="46.573547" lon="8.340208"><ele>1901.1</ele><time>2025-09-11T08:32:13Z</time></trkpt>
<trkpt lat="46.572933" lon="8.340190"><ele>1901.2</ele><time>2025-09-11T08:32:34Z</time></trkpt>
<trkpt lat="46.572164" lon="8.340124"><ele>1900.9</ele><time>2025-09-11T08:33:00Z</time></trkpt>
<trkpt lat="46.571556" lon="8.339932"><ele>1900.7</ele><time>2025-09-11T08:33:21Z</time></trkpt>
<trkpt lat="46.571127" lon="8.339760"><ele>1901.0</ele><time>2025-09-11T08:33:36Z</time></trkpt>
<trkpt lat="46.570386" lon="8.339145"><ele>1901.6</ele><time>2025-09-11T08:34:04Z</time></trkpt>
<trkpt lat="46.569873" lon="8.337893"><ele>1905.1</ele><time>2025-09-11T08:34:38Z</time></trkpt>
<trkpt lat="46.569764" lon="8.337580"><ele>1906.8</ele><time>2025-09-11T08:34:46Z</time></trkpt>
<trkpt lat="46.569638" lon="8.337299"><ele>1908.4</ele><time>2025-09-11T08:34:54Z</time></trkpt>
<trkpt lat="46.569419" lon="8.336975"><ele>1910.6</ele><time>2025-09-11T08:35:04Z</time></trkpt>
<trkpt lat="46.569199" lon="8.336668"><ele>1912.8</ele><time>2025-09-11T08:35:14Z</time></trkpt>
<trkpt lat="46.569050" lon="8.336413"><ele>1914.4</ele><time>2025-09-11T08:35:22Z</time></trkpt>
<trkpt lat="46.568904" lon="8.336133"><ele>1916.5</ele><time>2025-09-11T08:35:30Z</time></trkpt>
<trkpt lat="46.568713" lon="8.335736"><ele>1919.6</ele><time>2025-09-11T08:35:41Z</time></trkpt>
<trkpt lat="46.568545" lon="8.335409"><ele>1922.1</ele><time>2025-09-11T08:35:51Z</time></trkpt>
<trkpt lat="46.568387" lon="8.335093"><ele>1924.6</ele><time>2025-09-11T08:36:00Z</time></trkpt>
<trkpt lat="46.568246" lon="8.334840"><ele>1926.6</ele><time>2025-09-11T08:36:07Z</time></trkpt>
<trkpt lat="46.568106" lon="8.334600"><ele>1928.6</ele><time>2025-09-11T08:36:14Z</time></trkpt>
<trkpt lat="46.567943" lon="8.334341"><ele>1930.8</ele><time>2025-09-11T08:36:22Z</time></trkpt>
<trkpt lat="46.567762" lon="8.334038"><ele>1933.4</ele><time>2025-09-11T08:36:32Z</time></trkpt>
<trkpt lat="46.567662" lon="8.333873"><ele>1934.8</ele><time>2025-09-11T08:36:37Z</time></trkpt>
<trkpt lat="46.567505" lon="8.333630"><ele>1936.9</ele><time>2025-09-11T08:36:44Z</time></trkpt>
<trkpt lat="46.567295" lon="8.333203"><ele>1940.3</ele><time>2025-09-11T08:36:56Z</time></trkpt>
<trkpt lat="46.567176" lon="8.332902"><ele>1942.5</ele><time>2025-09-11T08:37:04Z</time></trkpt>
<trkpt lat="46.567066" lon="8.332472"><ele>1945.5</ele><time>2025-09-11T08:37:15Z</time></trkpt>
<trkpt lat="46.567001" lon="8.332116"><ele>1947.9</ele><time>2025-09-11T08:37:23Z</time></trkpt>
<trkpt lat="46.566941" lon="8.331788"><ele>1949.5</ele><time>2025-09-11T08:37:31Z</time></trkpt>
<trkpt lat="46.566864" lon="8.331303"><ele>1952.0</ele><time>2025-09-11T08:37:43Z</time></trkpt>
<trkpt lat="46.566857" lon="8.330953"><ele>1953.7</ele><time>2025-09-11T08:37:51Z</time></trkpt>
<trkpt lat="46.566895" lon="8.330524"><ele>1955.8</ele><time>2025-09-11T08:38:01Z</time></trkpt>
<trkpt lat="46.566674" lon="8.330294"><ele>1958.2</ele><time>2025-09-11T08:38:11Z</time></trkpt>
<trkpt lat="46.566575" lon="8.330746"><ele>1960.7</ele><time>2025-09-11T08:38:24Z</time></trkpt>
<trkpt lat="46.566642" lon="8.331179"><ele>1963.2</ele><time>2025-09-11T08:38:34Z</time></trkpt>
<trkpt lat="46.566665" lon="8.331675"><ele>1966.0</ele><time>2025-09-11T08:38:45Z</time></trkpt>
<trkpt lat="46.566662" lon="8.332066"><ele>1968.2</ele><time>2025-09-11T08:38:54Z</time></trkpt>
<trkpt lat="46.566660" lon="8.332507"><ele>1970.7</ele><time>2025-09-11T08:39:04Z</time></trkpt>
<trkpt lat="46.566667" lon="8.332908"><ele>1973.0</ele><time>2025-09-11T08:39:14Z</time></trkpt>
<trkpt lat="46.566661" lon="8.333163"><ele>1974.4</ele><time>2025-09-11T08:39:19Z</time></trkpt>
<trkpt lat="46.566677" lon="8.333450"><ele>1976.1</ele><time>2025-09-11T08:39:26Z</time></trkpt>
<trkpt lat="46.566678" lon="8.333726"><ele>1977.8</ele><time>2025-09-11T08:39:32Z</time></trkpt>
<trkpt lat="46.566707" lon="8.334138"><ele>1980.5</ele><time>2025-09-11T08:39:42Z</time></trkpt>
<trkpt lat="46.566731" lon="8.334372"><ele>1982.0</ele><time>2025-09-11T08:39:47Z</time></trkpt>
<trkpt lat="46.566830" lon="8.334717"><ele>1984.4</ele><time>2025-09-11T08:39:56Z</time></trkpt>
<trkpt lat="46.566977" lon="8.334930"><ele>1986.3</ele><time>2025-09-11T08:40:03Z</time></trkpt>
<trkpt lat="46.567107" lon="8.335101"><ele>1987.9</ele><time>2025-09-11T08:40:09Z</time></trkpt>
<trkpt lat="46.567293" lon="8.335432"><ele>1990.6</ele><time>2025-09-11T08:40:19Z</time></trkpt>
<trkpt lat="46.567383" lon="8.335746"><ele>1992.8</ele><time>2025-09-11T08:40:27Z</time></trkpt>
<trkpt lat="46.567461" lon="8.336116"><ele>1995.4</ele><time>2025-09-11T08:40:35Z</time></trkpt>
<trkpt lat="46.567540" lon="8.336429"><ele>1997.6</ele><time>2025-09-11T08:40:43Z</time></trkpt>
<trkpt lat="46.567607" lon="8.336740"><ele>1999.8</ele><time>2025-09-11T08:40:51Z</time></trkpt>
<trkpt lat="46.567681" lon="8.337115"><ele>2002.3</ele><time>2025-09-11T08:41:00Z</time></trkpt>
<trkpt lat="46.567732" lon="8.337325"><ele>2003.8</ele><time>2025-09-11T08:41:05Z</time></trkpt>
<trkpt lat="46.567801" lon="8.337627"><ele>2005.9</ele><time>2025-09-11T08:41:12Z</time></trkpt>
<trkpt lat="46.567873" lon="8.337876"><ele>2007.7</ele><time>2025-09-11T08:41:18Z</time></trkpt>
<trkpt lat="46.567944" lon="8.338076"><ele>2009.2</ele><time>2025-09-11T08:41:23Z</time></trkpt>
<trkpt lat="46.568076" lon="8.338474"><ele>2010.9</ele><time>2025-09-11T08:41:34Z</time></trkpt>
<trkpt lat="46.567877" lon="8.338563"><ele>2012.3</ele><time>2025-09-11T08:41:42Z</time></trkpt>
<trkpt lat="46.567767" lon="8.338268"><ele>2013.6</ele><time>2025-09-11T08:41:50Z</time></trkpt>
<trkpt lat="46.567673" lon="8.338023"><ele>2014.6</ele><time>2025-09-11T08:41:56Z</time></trkpt>
<trkpt lat="46.567596" lon="8.337827"><ele>2015.5</ele><time>2025-09-11T08:42:02Z</time></trkpt>
<trkpt lat="46.567576" lon="8.337775"><ele>2015.8</ele><time>2025-09-11T08:42:03Z</time></trkpt>
<trkpt lat="46.567513" lon="8.337783"><ele>2016.2</ele><time>2025-09-11T08:42:06Z</time></trkpt>
<trkpt lat="46.567400" lon="8.337674"><ele>2016.9</ele><time>2025-09-11T08:42:10Z</time></trkpt>
<trkpt lat="46.567355" lon="8.337601"><ele>2017.3</ele><time>2025-09-11T08:42:13Z</time></trkpt>
<trkpt lat="46.567335" lon="8.337640"><ele>2017.8</ele><time>2025-09-11T08:42:15Z</time></trkpt>
<trkpt lat="46.567382" lon="8.337755"><ele>2018.3</ele><time>2025-09-11T08:42:18Z</time></trkpt>
<trkpt lat="46.567362" lon="8.337743"><ele>2018.5</ele><time>2025-09-11T08:42:20Z</time></trkpt>
<trkpt lat="46.567330" lon="8.337615"><ele>2019.1</ele><time>2025-09-11T08:42:23Z</time></trkpt>
<trkpt lat="46.567412" lon="8.337662"><ele>2019.6</ele><time>2025-09-11T08:42:27Z</time></trkpt>
<trkpt lat="46.567500" lon="8.337801"><ele>2020.2</ele><time>2025-09-11T08:42:31Z</time></trkpt>
<trkpt lat="46.567562" lon="8.337790"><ele>2020.6</ele><time>2025-09-11T08:42:34Z</time></trkpt>
<trkpt lat="46.567566" lon="8.337774"><ele>2020.9</ele><time>2025-09-11T08:42:36Z</time></trkpt>
<trkpt lat="46.567570" lon="8.337773"><ele>2021.1</ele><time>2025-09-11T08:42:37Z</time></trkpt>
<trkpt lat="46.567409" lon="8.337430"><ele>2022.9</ele><time>2025-09-11T08:42:51Z</time></trkpt>
<trkpt lat="46.567275" lon="8.337131"><ele>2024.1</ele><time>2025-09-11T08:42:59Z</time></trkpt>
<trkpt lat="46.567114" lon="8.336780"><ele>2025.4</ele><time>2025-09-11T08:43:08Z</time></trkpt>
<trkpt lat="46.566959" lon="8.336486"><ele>2026.6</ele><time>2025-09-11T08:43:17Z</time></trkpt>
<trkpt lat="46.566751" lon="8.336139"><ele>2028.7</ele><time>2025-09-11T08:43:28Z</time></trkpt>
<trkpt lat="46.566576" lon="8.335968"><ele>2030.8</ele><time>2025-09-11T08:43:35Z</time></trkpt>
<trkpt lat="46.566402" lon="8.335889"><ele>2032.5</ele><time>2025-09-11T08:43:41Z</time></trkpt>
<trkpt lat="46.566115" lon="8.335844"><ele>2035.3</ele><time>2025-09-11T08:43:50Z</time></trkpt>
<trkpt lat="46.565878" lon="8.335811"><ele>2037.6</ele><time>2025-09-11T08:43:58Z</time></trkpt>
<trkpt lat="46.565462" lon="8.335274"><ele>2043.2</ele><time>2025-09-11T08:44:17Z</time></trkpt>
<trkpt lat="46.565435" lon="8.334887"><ele>2045.8</ele><time>2025-09-11T08:44:27Z</time></trkpt>
<trkpt lat="46.565420" lon="8.334653"><ele>2047.3</ele><time>2025-09-11T08:44:32Z</time></trkpt>
<trkpt lat="46.565425" lon="8.334402"><ele>2048.8</ele><time>2025-09-11T08:44:38Z</time></trkpt>
<trkpt lat="46.565420" lon="8.334077"><ele>2050.9</ele><time>2025-09-11T08:44:45Z</time></trkpt>
<trkpt lat="46.565428" lon="8.333732"><ele>2053.1</ele><time>2025-09-11T08:44:53Z</time></trkpt>
<trkpt lat="46.565425" lon="8.333418"><ele>2055.0</ele><time>2025-09-11T08:45:00Z</time></trkpt>
<trkpt lat="46.565414" lon="8.333116"><ele>2057.0</ele><time>2025-09-11T08:45:07Z</time></trkpt>
<trkpt lat="46.565404" lon="8.332645"><ele>2059.9</ele><time>2025-09-11T08:45:18Z</time></trkpt>
<trkpt lat="46.565123" lon="8.332622"><ele>2062.8</ele><time>2025-09-11T08:45:29Z</time></trkpt>
<trkpt lat="46.565105" lon="8.333041"><ele>2065.1</ele><time>2025-09-11T08:45:39Z</time></trkpt>
<trkpt lat="46.565114" lon="8.333401"><ele>2067.1</ele><time>2025-09-11T08:45:48Z</time></trkpt>
<trkpt lat="46.565093" lon="8.333701"><ele>2068.8</ele><time>2025-09-11T08:45:54Z</time></trkpt>
<trkpt lat="46.565003" lon="8.334057"><ele>2070.9</ele><time>2025-09-11T08:46:03Z</time></trkpt>
<trkpt lat="46.564929" lon="8.334316"><ele>2072.5</ele><time>2025-09-11T08:46:10Z</time></trkpt>
<trkpt lat="46.564822" lon="8.334647"><ele>2074.5</ele><time>2025-09-11T08:46:18Z</time></trkpt>
<trkpt lat="46.564727" lon="8.334947"><ele>2076.3</ele><time>2025-09-11T08:46:26Z</time></trkpt>
<trkpt lat="46.564679" lon="8.335114"><ele>2077.2</ele><time>2025-09-11T08:46:30Z</time></trkpt>
<trkpt lat="46.564619" lon="8.335473"><ele>2079.1</ele><time>2025-09-11T08:46:38Z</time></trkpt>
<trkpt lat="46.564562" lon="8.335831"><ele>2081.2</ele><time>2025-09-11T08:46:48Z</time></trkpt>
<trkpt lat="46.564504" lon="8.335784"><ele>2081.8</ele><time>2025-09-11T08:46:50Z</time></trkpt>
<trkpt lat="46.564610" lon="8.335923"><ele>2083.1</ele><time>2025-09-11T08:46:56Z</time></trkpt>
<trkpt lat="46.564674" lon="8.336287"><ele>2085.0</ele><time>2025-09-11T08:47:05Z</time></trkpt>
<trkpt lat="46.564857" lon="8.336713"><ele>2087.6</ele><time>2025-09-11T08:47:16Z</time></trkpt>
<trkpt lat="46.565058" lon="8.337038"><ele>2089.9</ele><time>2025-09-11T08:47:26Z</time></trkpt>
<trkpt lat="46.565215" lon="8.337267"><ele>2091.8</ele><time>2025-09-11T08:47:34Z</time></trkpt>
<trkpt lat="46.565397" lon="8.337590"><ele>2094.2</ele><time>2025-09-11T08:47:44Z</time></trkpt>
<trkpt lat="46.565549" lon="8.337844"><ele>2096.1</ele><time>2025-09-11T08:47:51Z</time></trkpt>
<trkpt lat="46.565713" lon="8.338131"><ele>2098.3</ele><time>2025-09-11T08:48:00Z</time></trkpt>
<trkpt lat="46.565875" lon="8.338413"><ele>2100.4</ele><time>2025-09-11T08:48:08Z</time></trkpt>
<trkpt lat="46.565978" lon="8.338607"><ele>2101.8</ele><time>2025-09-11T08:48:14Z</time></trkpt>
<trkpt lat="46.566009" lon="8.338960"><ele>2104.2</ele><time>2025-09-11T08:48:24Z</time></trkpt>
<trkpt lat="46.565775" lon="8.338791"><ele>2106.4</ele><time>2025-09-11T08:48:34Z</time></trkpt>
<trkpt lat="46.565606" lon="8.338532"><ele>2108.3</ele><time>2025-09-11T08:48:42Z</time></trkpt>
<trkpt lat="46.565374" lon="8.338293"><ele>2110.4</ele><time>2025-09-11T08:48:51Z</time></trkpt>
<trkpt lat="46.565181" lon="8.338218"><ele>2111.9</ele><time>2025-09-11T08:48:58Z</time></trkpt>
<trkpt lat="46.564961" lon="8.338155"><ele>2113.5</ele><time>2025-09-11T08:49:06Z</time></trkpt>
<trkpt lat="46.564786" lon="8.338150"><ele>2114.8</ele><time>2025-09-11T08:49:12Z</time></trkpt>
<trkpt lat="46.564518" lon="8.338098"><ele>2116.9</ele><time>2025-09-11T08:49:21Z</time></trkpt>
<trkpt lat="46.564253" lon="8.337986"><ele>2119.2</ele><time>2025-09-11T08:49:30Z</time></trkpt>
<trkpt lat="46.564105" lon="8.337895"><ele>2120.6</ele><time>2025-09-11T08:49:35Z</time></trkpt>
<trkpt lat="46.563909" lon="8.337778"><ele>2122.5</ele><time>2025-09-11T08:49:42Z</time></trkpt>
<trkpt lat="46.563771" lon="8.337722"><ele>2123.8</ele><time>2025-09-11T08:49:47Z</time></trkpt>
<trkpt lat="46.563508" lon="8.337646"><ele>2126.2</ele><time>2025-09-11T08:49:56Z</time></trkpt>
<trkpt lat="46.563217" lon="8.337645"><ele>2128.8</ele><time>2025-09-11T08:50:06Z</time></trkpt>
<trkpt lat="46.563034" lon="8.337674"><ele>2130.5</ele><time>2025-09-11T08:50:12Z</time></trkpt>
<trkpt lat="46.562778" lon="8.337688"><ele>2132.8</ele><time>2025-09-11T08:50:20Z</time></trkpt>
<trkpt lat="46.562539" lon="8.337614"><ele>2134.9</ele><time>2025-09-11T08:50:29Z</time></trkpt>
<trkpt lat="46.562380" lon="8.337467"><ele>2136.6</ele><time>2025-09-11T08:50:35Z</time></trkpt>
<trkpt lat="46.562197" lon="8.337201"><ele>2138.8</ele><time>2025-09-11T08:50:44Z</time></trkpt>
<trkpt lat="46.562063" lon="8.336949"><ele>2140.7</ele><time>2025-09-11T08:50:51Z</time></trkpt>
<trkpt lat="46.561954" lon="8.336750"><ele>2142.3</ele><time>2025-09-11T08:50:57Z</time></trkpt>
<trkpt lat="46.561944" lon="8.336729"><ele>2142.5</ele><time>2025-09-11T08:50:58Z</time></trkpt>
<trkpt lat="46.561873" lon="8.336685"><ele>2143.5</ele><time>2025-09-11T08:51:02Z</time></trkpt>
<trkpt lat="46.561689" lon="8.336510"><ele>2145.4</ele><time>2025-09-11T08:51:09Z</time></trkpt>
<trkpt lat="46.561382" lon="8.336478"><ele>2148.1</ele><time>2025-09-11T08:51:19Z</time></trkpt>
<trkpt lat="46.561283" lon="8.336539"><ele>2149.1</ele><time>2025-09-11T08:51:23Z</time></trkpt>
<trkpt lat="46.561133" lon="8.336578"><ele>2149.4</ele><time>2025-09-11T08:51:29Z</time></trkpt>
<trkpt lat="46.561061" lon="8.336808"><ele>2149.6</ele><time>2025-09-11T08:51:36Z</time></trkpt>
<trkpt lat="46.561034" lon="8.336928"><ele>2149.7</ele><time>2025-09-11T08:51:39Z</time></trkpt>
<trkpt lat="46.561100" lon="8.337141"><ele>2149.9</ele><time>2025-09-11T08:51:45Z</time></trkpt>
<trkpt lat="46.561334" lon="8.337539"><ele>2150.2</ele><time>2025-09-11T08:51:57Z</time></trkpt>
<trkpt lat="46.561669" lon="8.338004"><ele>2150.7</ele><time>2025-09-11T08:52:12Z</time></trkpt>
</trkseg></trk></gpx>
