<?xml version="1.0" encoding="UTF-8"?>
<TrainingCenterDatabase xmlns="http://www.garmin.com/xmlschemas/TrainingCenterDatabase/v2" xmlns:xsi="http://www.w3.org/2001/XMLSchema-instance" xsi:schemaLocation="http://www.garmin.com/xmlschemas/TrainingCenterDatabase/v2 http://www.garmin.com/xmlschemas/TrainingCenterDatabasev2.xsd">
  <Courses>
    <Course>
      <Name>Alpe d'Huez Climb</Name>
      <Lap>
        <TotalTimeSeconds>4200</TotalTimeSeconds>
        <DistanceMeters>5976.4</DistanceMeters>
        <BeginPosition>
          <LatitudeDegrees>45.056700</LatitudeDegrees>
          <LongitudeDegrees>6.028600</LongitudeDegrees>
        </BeginPosition>
        <EndPosition>
          <LatitudeDegrees>45.092200</LatitudeDegrees>
          <LongitudeDegrees>6.070300</LongitudeDegrees>
        </EndPosition>
        <Intensity>Active</Intensity>
      </Lap>
      <Track>
      <Trackpoint>
        <Time>2026-05-30T08:30:00Z</Time>
        <Position>
          <LatitudeDegrees>45.056700</LatitudeDegrees>
          <LongitudeDegrees>6.028600</LongitudeDegrees>
        </Position>
        <AltitudeMeters>720.0</AltitudeMeters>
        <DistanceMeters>0.0</DistanceMeters>
      </Trackpoint>
      <Trackpoint>
        <Time>2026-05-30T08:30:00Z</Time>
        <Position>
          <LatitudeDegrees>45.057809</LatitudeDegrees>
          <LongitudeDegrees>6.030756</LongitudeDegrees>
        </Position>
        <AltitudeMeters>735.4</AltitudeMeters>
        <DistanceMeters>209.5</DistanceMeters>
      </Trackpoint>
      <Trackpoint>
        <Time>2026-05-30T08:30:00Z</Time>
        <Position>
          <LatitudeDegrees>45.058843</LatitudeDegrees>
          <LongitudeDegrees>6.032699</LongitudeDegrees>
        </Position>
        <AltitudeMeters>750.9</AltitudeMeters>
        <DistanceMeters>400.6</DistanceMeters>
      </Trackpoint>
      <Trackpoint>
        <Time>2026-05-30T08:30:00Z</Time>
        <Position>
          <LatitudeDegrees>45.059745</LatitudeDegrees>
          <LongitudeDegrees>6.034263</LongitudeDegrees>
        </Position>
        <AltitudeMeters>763.9</AltitudeMeters>
        <DistanceMeters>559.1</DistanceMeters>
      </Trackpoint>
      <Trackpoint>
        <Time>2026-05-30T08:30:00Z</Time>
        <Position>
          <LatitudeDegrees>45.060474</LatitudeDegrees>
          <LongitudeDegrees>6.035333</LongitudeDegrees>
        </Position>
        <AltitudeMeters>774.5</AltitudeMeters>
        <DistanceMeters>675.9</DistanceMeters>
      </Trackpoint>
      <Trackpoint>
        <Time>2026-05-30T08:30:00Z</Time>
        <Position>
          <LatitudeDegrees>45.061015</LatitudeDegrees>
          <LongitudeDegrees>6.035866</LongitudeDegrees>
        </Position>
        <AltitudeMeters>784.2</AltitudeMeters>
        <DistanceMeters>749.2</DistanceMeters>
      </Trackpoint>
      <Trackpoint>
        <Time>2026-05-30T08:30:00Z</Time>
        <Position>
          <LatitudeDegrees>45.061378</LatitudeDegrees>
          <LongitudeDegrees>6.035891</LongitudeDegrees>
        </Position>
        <AltitudeMeters>795.2</AltitudeMeters>
        <DistanceMeters>789.6</DistanceMeters>
      </Trackpoint>
      <Trackpoint>
        <Time>2026-05-30T08:30:00Z</Time>
        <Position>
          <LatitudeDegrees>45.061597</LatitudeDegrees>
          <LongitudeDegrees>6.035506</LongitudeDegrees>
        </Position>
        <AltitudeMeters>809.4</AltitudeMeters>
        <DistanceMeters>828.5</DistanceMeters>
      </Trackpoint>
      <Trackpoint>
        <Time>2026-05-30T08:30:00Z</Time>
        <Position>
          <LatitudeDegrees>45.061727</LatitudeDegrees>
          <LongitudeDegrees>6.034865</LongitudeDegrees>
        </Position>
        <AltitudeMeters>827.5</AltitudeMeters>
        <DistanceMeters>880.9</DistanceMeters>
      </Trackpoint>
      <Trackpoint>
        <Time>2026-05-30T08:30:00Z</Time>
        <Position>
          <LatitudeDegrees>45.061833</LatitudeDegrees>
          <LongitudeDegrees>6.034154</LongitudeDegrees>
        </Position>
        <AltitudeMeters>848.6</AltitudeMeters>
        <DistanceMeters>937.9</DistanceMeters>
      </Trackpoint>
      <Trackpoint>
        <Time>2026-05-30T08:30:00Z</Time>
        <Position>
          <LatitudeDegrees>45.061982</LatitudeDegrees>
          <LongitudeDegrees>6.033569</LongitudeDegrees>
        </Position>
        <AltitudeMeters>870.6</AltitudeMeters>
        <DistanceMeters>986.8</DistanceMeters>
      </Trackpoint>
      <Trackpoint>
        <Time>2026-05-30T08:31:00Z</Time>
        <Position>
          <LatitudeDegrees>45.062237</LatitudeDegrees>
          <LongitudeDegrees>6.033284</LongitudeDegrees>
        </Position>
        <AltitudeMeters>891.1</AltitudeMeters>
        <DistanceMeters>1022.8</DistanceMeters>
      </Trackpoint>
      <Trackpoint>
        <Time>2026-05-30T08:31:00Z</Time>
        <Position>
          <LatitudeDegrees>45.062643</LatitudeDegrees>
          <LongitudeDegrees>6.033433</LongitudeDegrees>
        </Position>
        <AltitudeMeters>908.7</AltitudeMeters>
        <DistanceMeters>1069.5</DistanceMeters>
      </Trackpoint>
      <Trackpoint>
        <Time>2026-05-30T08:31:00Z</Time>
        <Position>
          <LatitudeDegrees>45.063226</LatitudeDegrees>
          <LongitudeDegrees>6.034086</LongitudeDegrees>
        </Position>
        <AltitudeMeters>923.0</AltitudeMeters>
        <DistanceMeters>1152.1</DistanceMeters>
      </Trackpoint>
      <Trackpoint>
        <Time>2026-05-30T08:31:00Z</Time>
        <Position>
          <LatitudeDegrees>45.063986</LatitudeDegrees>
          <LongitudeDegrees>6.035245</LongitudeDegrees>
        </Position>
        <AltitudeMeters>935.6</AltitudeMeters>
        <DistanceMeters>1276.4</DistanceMeters>
      </Trackpoint>
      <Trackpoint>
        <Time>2026-05-30T08:31:00Z</Time>
        <Position>
          <LatitudeDegrees>45.064900</LatitudeDegrees>
          <LongitudeDegrees>6.036843</LongitudeDegrees>
        </Position>
        <AltitudeMeters>948.5</AltitudeMeters>
        <DistanceMeters>1437.9</DistanceMeters>
      </Trackpoint>
      <Trackpoint>
        <Time>2026-05-30T08:31:00Z</Time>
        <Position>
          <LatitudeDegrees>45.065923</LatitudeDegrees>
          <LongitudeDegrees>6.038754</LongitudeDegrees>
        </Position>
        <AltitudeMeters>964.1</AltitudeMeters>
        <DistanceMeters>1626.2</DistanceMeters>
      </Trackpoint>
      <Trackpoint>
        <Time>2026-05-30T08:31:00Z</Time>
        <Position>
          <LatitudeDegrees>45.066997</LatitudeDegrees>
          <LongitudeDegrees>6.040810</LongitudeDegrees>
        </Position>
        <AltitudeMeters>983.3</AltitudeMeters>
        <DistanceMeters>1827.0</DistanceMeters>
      </Trackpoint>
      <Trackpoint>
        <Time>2026-05-30T08:32:00Z</Time>
        <Position>
          <LatitudeDegrees>45.068056</LatitudeDegrees>
          <LongitudeDegrees>6.042824</LongitudeDegrees>
        </Position>
        <AltitudeMeters>1005.7</AltitudeMeters>
        <DistanceMeters>2024.2</DistanceMeters>
      </Trackpoint>
      <Trackpoint>
        <Time>2026-05-30T08:32:00Z</Time>
        <Position>
          <LatitudeDegrees>45.069038</LatitudeDegrees>
          <LongitudeDegrees>6.044618</LongitudeDegrees>
        </Position>
        <AltitudeMeters>1029.5</AltitudeMeters>
        <DistanceMeters>2202.4</DistanceMeters>
      </Trackpoint>
      <Trackpoint>
        <Time>2026-05-30T08:32:00Z</Time>
        <Position>
          <LatitudeDegrees>45.069893</LatitudeDegrees>
          <LongitudeDegrees>6.046046</LongitudeDegrees>
        </Position>
        <AltitudeMeters>1052.4</AltitudeMeters>
        <DistanceMeters>2349.4</DistanceMeters>
      </Trackpoint>
      <Trackpoint>
        <Time>2026-05-30T08:32:00Z</Time>
        <Position>
          <LatitudeDegrees>45.070586</LatitudeDegrees>
          <LongitudeDegrees>6.047014</LongitudeDegrees>
        </Position>
        <AltitudeMeters>1072.4</AltitudeMeters>
        <DistanceMeters>2457.7</DistanceMeters>
      </Trackpoint>
      <Trackpoint>
        <Time>2026-05-30T08:32:00Z</Time>
        <Position>
          <LatitudeDegrees>45.071107</LatitudeDegrees>
          <LongitudeDegrees>6.047491</LongitudeDegrees>
        </Position>
        <AltitudeMeters>1089.1</AltitudeMeters>
        <DistanceMeters>2526.7</DistanceMeters>
      </Trackpoint>
      <Trackpoint>
        <Time>2026-05-30T08:32:00Z</Time>
        <Position>
          <LatitudeDegrees>45.071469</LatitudeDegrees>
          <LongitudeDegrees>6.047514</LongitudeDegrees>
        </Position>
        <AltitudeMeters>1103.4</AltitudeMeters>
        <DistanceMeters>2567.0</DistanceMeters>
      </Trackpoint>
      <Trackpoint>
        <Time>2026-05-30T08:32:00Z</Time>
        <Position>
          <LatitudeDegrees>45.071707</LatitudeDegrees>
          <LongitudeDegrees>6.047182</LongitudeDegrees>
        </Position>
        <AltitudeMeters>1117.4</AltitudeMeters>
        <DistanceMeters>2604.2</DistanceMeters>
      </Trackpoint>
      <Trackpoint>
        <Time>2026-05-30T08:32:00Z</Time>
        <Position>
          <LatitudeDegrees>45.071872</LatitudeDegrees>
          <LongitudeDegrees>6.046641</LongitudeDegrees>
        </Position>
        <AltitudeMeters>1133.4</AltitudeMeters>
        <DistanceMeters>2650.5</DistanceMeters>
      </Trackpoint>
      <Trackpoint>
        <Time>2026-05-30T08:32:00Z</Time>
        <Position>
          <LatitudeDegrees>45.072024</LatitudeDegrees>
          <LongitudeDegrees>6.046063</LongitudeDegrees>
        </Position>
        <AltitudeMeters>1152.9</AltitudeMeters>
        <DistanceMeters>2698.9</DistanceMeters>
      </Trackpoint>
      <Trackpoint>
        <Time>2026-05-30T08:32:00Z</Time>
        <Position>
          <LatitudeDegrees>45.072225</LatitudeDegrees>
          <LongitudeDegrees>6.045625</LongitudeDegrees>
        </Position>
        <AltitudeMeters>1175.8</AltitudeMeters>
        <DistanceMeters>2739.9</DistanceMeters>
      </Trackpoint>
      <Trackpoint>
        <Time>2026-05-30T08:32:00Z</Time>
        <Position>
          <LatitudeDegrees>45.072530</LatitudeDegrees>
          <LongitudeDegrees>6.045482</LongitudeDegrees>
        </Position>
        <AltitudeMeters>1200.6</AltitudeMeters>
        <DistanceMeters>2775.6</DistanceMeters>
      </Trackpoint>
      <Trackpoint>
        <Time>2026-05-30T08:32:00Z</Time>
        <Position>
          <LatitudeDegrees>45.072976</LatitudeDegrees>
          <LongitudeDegrees>6.045745</LongitudeDegrees>
        </Position>
        <AltitudeMeters>1225.1</AltitudeMeters>
        <DistanceMeters>2829.4</DistanceMeters>
      </Trackpoint>
      <Trackpoint>
        <Time>2026-05-30T08:32:00Z</Time>
        <Position>
          <LatitudeDegrees>45.073585</LatitudeDegrees>
          <LongitudeDegrees>6.046472</LongitudeDegrees>
        </Position>
        <AltitudeMeters>1247.1</AltitudeMeters>
        <DistanceMeters>2917.9</DistanceMeters>
      </Trackpoint>
      <Trackpoint>
        <Time>2026-05-30T08:33:00Z</Time>
        <Position>
          <LatitudeDegrees>45.074353</LatitudeDegrees>
          <LongitudeDegrees>6.047654</LongitudeDegrees>
        </Position>
        <AltitudeMeters>1265.7</AltitudeMeters>
        <DistanceMeters>3044.0</DistanceMeters>
      </Trackpoint>
      <Trackpoint>
        <Time>2026-05-30T08:33:00Z</Time>
        <Position>
          <LatitudeDegrees>45.075255</LatitudeDegrees>
          <LongitudeDegrees>6.049220</LongitudeDegrees>
        </Position>
        <AltitudeMeters>1281.5</AltitudeMeters>
        <DistanceMeters>3202.7</DistanceMeters>
      </Trackpoint>
      <Trackpoint>
        <Time>2026-05-30T08:33:00Z</Time>
        <Position>
          <LatitudeDegrees>45.076249</LatitudeDegrees>
          <LongitudeDegrees>6.051048</LongitudeDegrees>
        </Position>
        <AltitudeMeters>1296.3</AltitudeMeters>
        <DistanceMeters>3383.9</DistanceMeters>
      </Trackpoint>
      <Trackpoint>
        <Time>2026-05-30T08:33:00Z</Time>
        <Position>
          <LatitudeDegrees>45.077281</LatitudeDegrees>
          <LongitudeDegrees>6.052982</LongitudeDegrees>
        </Position>
        <AltitudeMeters>1312.5</AltitudeMeters>
        <DistanceMeters>3574.2</DistanceMeters>
      </Trackpoint>
      <Trackpoint>
        <Time>2026-05-30T08:33:00Z</Time>
        <Position>
          <LatitudeDegrees>45.078290</LatitudeDegrees>
          <LongitudeDegrees>6.054853</LongitudeDegrees>
        </Position>
        <AltitudeMeters>1331.9</AltitudeMeters>
        <DistanceMeters>3759.1</DistanceMeters>
      </Trackpoint>
      <Trackpoint>
        <Time>2026-05-30T08:33:00Z</Time>
        <Position>
          <LatitudeDegrees>45.079222</LatitudeDegrees>
          <LongitudeDegrees>6.056503</LongitudeDegrees>
        </Position>
        <AltitudeMeters>1354.9</AltitudeMeters>
        <DistanceMeters>3925.0</DistanceMeters>
      </Trackpoint>
      <Trackpoint>
        <Time>2026-05-30T08:34:00Z</Time>
        <Position>
          <LatitudeDegrees>45.080032</LatitudeDegrees>
          <LongitudeDegrees>6.057806</LongitudeDegrees>
        </Position>
        <AltitudeMeters>1380.4</AltitudeMeters>
        <DistanceMeters>4061.3</DistanceMeters>
      </Trackpoint>
      <Trackpoint>
        <Time>2026-05-30T08:34:00Z</Time>
        <Position>
          <LatitudeDegrees>45.080693</LatitudeDegrees>
          <LongitudeDegrees>6.058684</LongitudeDegrees>
        </Position>
        <AltitudeMeters>1406.0</AltitudeMeters>
        <DistanceMeters>4162.1</DistanceMeters>
      </Trackpoint>
      <Trackpoint>
        <Time>2026-05-30T08:34:00Z</Time>
        <Position>
          <LatitudeDegrees>45.081200</LatitudeDegrees>
          <LongitudeDegrees>6.059119</LongitudeDegrees>
        </Position>
        <AltitudeMeters>1429.7</AltitudeMeters>
        <DistanceMeters>4228.0</DistanceMeters>
      </Trackpoint>
      <Trackpoint>
        <Time>2026-05-30T08:34:00Z</Time>
        <Position>
          <LatitudeDegrees>45.081567</LatitudeDegrees>
          <LongitudeDegrees>6.059154</LongitudeDegrees>
        </Position>
        <AltitudeMeters>1450.0</AltitudeMeters>
        <DistanceMeters>4268.8</DistanceMeters>
      </Trackpoint>
      <Trackpoint>
        <Time>2026-05-30T08:34:00Z</Time>
        <Position>
          <LatitudeDegrees>45.081827</LatitudeDegrees>
          <LongitudeDegrees>6.058886</LongitudeDegrees>
        </Position>
        <AltitudeMeters>1467.2</AltitudeMeters>
        <DistanceMeters>4304.6</DistanceMeters>
      </Trackpoint>
      <Trackpoint>
        <Time>2026-05-30T08:34:00Z</Time>
        <Position>
          <LatitudeDegrees>45.082030</LatitudeDegrees>
          <LongitudeDegrees>6.058452</LongitudeDegrees>
        </Position>
        <AltitudeMeters>1482.8</AltitudeMeters>
        <DistanceMeters>4345.5</DistanceMeters>
      </Trackpoint>
      <Trackpoint>
        <Time>2026-05-30T08:34:00Z</Time>
        <Position>
          <LatitudeDegrees>45.082229</LatitudeDegrees>
          <LongitudeDegrees>6.058010</LongitudeDegrees>
        </Position>
        <AltitudeMeters>1499.2</AltitudeMeters>
        <DistanceMeters>4386.7</DistanceMeters>
      </Trackpoint>
      <Trackpoint>
        <Time>2026-05-30T08:34:00Z</Time>
        <Position>
          <LatitudeDegrees>45.082481</LatitudeDegrees>
          <LongitudeDegrees>6.057717</LongitudeDegrees>
        </Position>
        <AltitudeMeters>1518.4</AltitudeMeters>
        <DistanceMeters>4422.9</DistanceMeters>
      </Trackpoint>
      <Trackpoint>
        <Time>2026-05-30T08:34:00Z</Time>
        <Position>
          <LatitudeDegrees>45.082832</LatitudeDegrees>
          <LongitudeDegrees>6.057707</LongitudeDegrees>
        </Position>
        <AltitudeMeters>1541.2</AltitudeMeters>
        <DistanceMeters>4461.9</DistanceMeters>
      </Trackpoint>
      <Trackpoint>
        <Time>2026-05-30T08:34:00Z</Time>
        <Position>
          <LatitudeDegrees>45.083315</LatitudeDegrees>
          <LongitudeDegrees>6.058075</LongitudeDegrees>
        </Position>
        <AltitudeMeters>1566.9</AltitudeMeters>
        <DistanceMeters>4522.9</DistanceMeters>
      </Trackpoint>
      <Trackpoint>
        <Time>2026-05-30T08:34:00Z</Time>
        <Position>
          <LatitudeDegrees>45.083945</LatitudeDegrees>
          <LongitudeDegrees>6.058862</LongitudeDegrees>
        </Position>
        <AltitudeMeters>1593.5</AltitudeMeters>
        <DistanceMeters>4616.3</DistanceMeters>
      </Trackpoint>
      <Trackpoint>
        <Time>2026-05-30T08:34:00Z</Time>
        <Position>
          <LatitudeDegrees>45.084715</LatitudeDegrees>
          <LongitudeDegrees>6.060051</LongitudeDegrees>
        </Position>
        <AltitudeMeters>1618.5</AltitudeMeters>
        <DistanceMeters>4743.1</DistanceMeters>
      </Trackpoint>
      <Trackpoint>
        <Time>2026-05-30T08:34:00Z</Time>
        <Position>
          <LatitudeDegrees>45.085602</LatitudeDegrees>
          <LongitudeDegrees>6.061572</LongitudeDegrees>
        </Position>
        <AltitudeMeters>1640.5</AltitudeMeters>
        <DistanceMeters>4897.9</DistanceMeters>
      </Trackpoint>
      <Trackpoint>
        <Time>2026-05-30T08:35:00Z</Time>
        <Position>
          <LatitudeDegrees>45.086564</LatitudeDegrees>
          <LongitudeDegrees>6.063308</LongitudeDegrees>
        </Position>
        <AltitudeMeters>1659.0</AltitudeMeters>
        <DistanceMeters>5071.2</DistanceMeters>
      </Trackpoint>
      <Trackpoint>
        <Time>2026-05-30T08:35:00Z</Time>
        <Position>
          <LatitudeDegrees>45.087551</LatitudeDegrees>
          <LongitudeDegrees>6.065117</LongitudeDegrees>
        </Position>
        <AltitudeMeters>1675.5</AltitudeMeters>
        <DistanceMeters>5250.7</DistanceMeters>
      </Trackpoint>
      <Trackpoint>
        <Time>2026-05-30T08:35:00Z</Time>
        <Position>
          <LatitudeDegrees>45.088511</LatitudeDegrees>
          <LongitudeDegrees>6.066846</LongitudeDegrees>
        </Position>
        <AltitudeMeters>1692.1</AltitudeMeters>
        <DistanceMeters>5423.4</DistanceMeters>
      </Trackpoint>
      <Trackpoint>
        <Time>2026-05-30T08:35:00Z</Time>
        <Position>
          <LatitudeDegrees>45.089394</LatitudeDegrees>
          <LongitudeDegrees>6.068358</LongitudeDegrees>
        </Position>
        <AltitudeMeters>1711.0</AltitudeMeters>
        <DistanceMeters>5577.4</DistanceMeters>
      </Trackpoint>
      <Trackpoint>
        <Time>2026-05-30T08:35:00Z</Time>
        <Position>
          <LatitudeDegrees>45.090164</LatitudeDegrees>
          <LongitudeDegrees>6.069544</LongitudeDegrees>
        </Position>
        <AltitudeMeters>1733.5</AltitudeMeters>
        <DistanceMeters>5703.9</DistanceMeters>
      </Trackpoint>
      <Trackpoint>
        <Time>2026-05-30T08:35:00Z</Time>
        <Position>
          <LatitudeDegrees>45.090798</LatitudeDegrees>
          <LongitudeDegrees>6.070345</LongitudeDegrees>
        </Position>
        <AltitudeMeters>1759.2</AltitudeMeters>
        <DistanceMeters>5798.4</DistanceMeters>
      </Trackpoint>
      <Trackpoint>
        <Time>2026-05-30T08:35:00Z</Time>
        <Position>
          <LatitudeDegrees>45.091295</LatitudeDegrees>
          <LongitudeDegrees>6.070753</LongitudeDegrees>
        </Position>
        <AltitudeMeters>1786.3</AltitudeMeters>
        <DistanceMeters>5862.2</DistanceMeters>
      </Trackpoint>
      <Trackpoint>
        <Time>2026-05-30T08:35:00Z</Time>
        <Position>
          <LatitudeDegrees>45.091671</LatitudeDegrees>
          <LongitudeDegrees>6.070813</LongitudeDegrees>
        </Position>
        <AltitudeMeters>1812.5</AltitudeMeters>
        <DistanceMeters>5904.3</DistanceMeters>
      </Trackpoint>
      <Trackpoint>
        <Time>2026-05-30T08:35:00Z</Time>
        <Position>
          <LatitudeDegrees>45.091958</LatitudeDegrees>
          <LongitudeDegrees>6.070620</LongitudeDegrees>
        </Position>
        <AltitudeMeters>1836.0</AltitudeMeters>
        <DistanceMeters>5939.6</DistanceMeters>
      </Trackpoint>
      <Trackpoint>
        <Time>2026-05-30T08:35:00Z</Time>
        <Position>
          <LatitudeDegrees>45.092200</LatitudeDegrees>
          <LongitudeDegrees>6.070300</LongitudeDegrees>
        </Position>
        <AltitudeMeters>1856.0</AltitudeMeters>
        <DistanceMeters>5976.4</DistanceMeters>
      </Trackpoint>
      </Track>
    <CoursePoint>
      <Name>Summit</Name>
      <Time>2026-05-30T08:45:00Z</Time>
      <Position>
        <LatitudeDegrees>45.091958</LatitudeDegrees>
        <LongitudeDegrees>6.070620</LongitudeDegrees>
      </Position>
      <PointType>Summit</PointType>
        <Notes>Alpe d'Huez village — refill bottles</Notes>
    </CoursePoint>
    <CoursePoint>
      <Name>Turn 21</Name>
      <Time>2026-05-30T08:45:00Z</Time>
      <Position>
        <LatitudeDegrees>45.061378</LatitudeDegrees>
        <LongitudeDegrees>6.035891</LongitudeDegrees>
      </Position>
      <PointType>Left</PointType>
        <Notes>First hairpin — settle in</Notes>
    </CoursePoint>
    <CoursePoint>
      <Name>Water</Name>
      <Time>2026-05-30T08:45:00Z</Time>
      <Position>
        <LatitudeDegrees>45.073585</LatitudeDegrees>
        <LongitudeDegrees>6.046472</LongitudeDegrees>
      </Position>
      <PointType>Water</PointType>
        <Notes>Fountain at Huez village</Notes>
    </CoursePoint>
    </Course>
  </Courses>
  <Author xsi:type="Application_t">
    <Name>Garmin Connect</Name>
    <Build><Version><VersionMajor>26</VersionMajor><VersionMinor>10</VersionMinor></Version></Build>
    <LangID>en</LangID>
    <PartNumber>006-D2449-00</PartNumber>
  </Author>
</TrainingCenterDatabase>
